district_id,school_id,school,city,state,zipcode,Unnamed: 8,Developed: 11-5-12
10,187,MAPLETON EXPEDITIONARY SCHOOL OF THE ARTS,THORNTON,CO,80299,,
10,212,MAPLETON EARLY COLLEGE HIGH SCHOOL,DENVER,CO,80229,,
10,263,GLOBAL LEADERSHIP ACADEMY,DENVER,CO,80221,,
10,309,ACADEMY HIGH SCHOOL,THORNTON,CO,80229,,
10,501,MONTEREY COMMUNITY SCHOOL,DENVER,CO,80229,,
10,502,MEADOW COMMUNITY SCHOOL,THORNTON,CO,80229,,
10,503,YORK INTERNATIONAL,THORNTON,CO,80229,,
10,504, WELBY MONTESSORI SCHOOL,DENVER,CO,80229,,
10,505,ACHIEVE ACADEMY,THORNTON,CO,80229,,
10,506,EXPLORE ELEMENTARY,THORNTON,CO,80229,,
10,507,ADVENTURE ELEMENTARY,DENVER,CO,80221,,
10,509,CLAYTON PARTNERSHIP SCHOOL,THORNTON,CO,80229,,
10,1796,COLORADO CONNECTIONS ACADEMY,ENGLEWOOD,CO,80112,,
10,4699,THE NEW AMERICA SCHOOL,DENVER,CO,80229,,
10,5539,MAPLETON EARLY LEARNING CENTER,DENVER,CO,80229,,
10,6315,NORTH VALLEY SCHOOL FOR YOUNG ADULTS,THORNTON,CO,80229,,
10,9036,VALLEY VIEW K-8,DENVER,CO,80221,,
20,14,GLACIER PEAK ELEMENTARY SCHOOL,BRIGHTON,CO,80605,,
20,15,ACADEMY OF CHARTER SCHOOLS,WESTMINSTER,CO,80031,,
20,57,ROCKY TOP MIDDLE SCHOOL,THORNTON,CO,80602,,
20,59,MERIDIAN ELEMENTARY SCHOOL,BROOMFIELD,CO,80020,,
20,70,ADAMS12 FIVE STAR PRESCHOOL,THORNTON,CO,80241,,
20,210,VANTAGE POINT,NORTHGLENN,CO,80234,,
20,301,ARAPAHOE RIDGE ELEMENTARY SCHOOL,WESTMINSTER,CO,80030,,
20,1020,BRIGHT HORIZONS PRE-KINDERGARTEN SCHOOL,BRIGHTON,CO,80601,,
20,1388,CENTENNIAL ELEMENTARY SCHOOL,BROOMFIELD,CO,80020,,
20,1480,CENTURY MIDDLE SCHOOL,THORNTON,CO,80241,,
20,1519,STARGATE CHARTER SCHOOL,THORNTON,CO,80241,,
20,1752,COLORADO VIRTUAL ACADEMY (COVA),NORTHGLENN,CO,80233,,
20,1878,CORONADO HILLS ELEMENTARY SCHOOL,THORNTON,CO,80229,,
20,1914,COTTON CREEK ELEMENTARY SCHOOL,WESTMINSTER,CO,80030,,
20,1937,COYOTE RIDGE ELEMENTARY SCHOOL,BROOMFIELD,CO,80020,,
20,2361,EAGLEVIEW ELEMENTARY SCHOOL,THORNTON,CO,80241,,
20,2410,TARVER ELEMENTARY SCHOOL,THORNTON,CO,80241,,
20,2576,CHERRY DRIVE ELEMENTARY SCHOOL,THORNTON,CO,80233,,
20,2578,SKYVIEW ELEMENTARY SCHOOL,THORNTON,CO,80241,,
20,2580,HUNTERS GLEN ELEMENTARY SCHOOL,THORNTON,CO,80241,,
20,2582,ROCKY MOUNTAIN ELEMENTARY SCHOOL,WESTMINSTER,CO,80030,,
20,2584,RIVERDALE ELEMENTARY SCHOOL,THORNTON,CO,80233,,
20,2918,FEDERAL HEIGHTS ELEMENTARY SCHOOL,DENVER,CO,80221,,
20,3439,GLOBAL VILLAGE ACADEMY,NORTHGLENN,CO,80234,,
20,4000,HILLCREST ELEMENTARY SCHOOL,NORTHGLENN,CO,80221,,
20,4108,HORIZON HIGH SCHOOL,BRIGHTON,CO,80601,,
20,4172,HULSTROM OPTIONS K-8 SCHOOL,NORTHGLENN,CO,80233,,
20,4187,SILVER HILLS MIDDLE SCHOOL,NORTHGLENN,CO,80234,,
20,5043,LEGACY HIGH SCHOOL,BROOMFIELD,CO,80020,,
20,5058,LEROY DRIVE ELEMENTARY SCHOOL,NORTHGLENN,CO,80233,,
20,5418,MALLEY DRIVE ELEMENTARY SCHOOL,NORTHGLENN,CO,80233,,
20,5706,MC ELWAIN ELEMENTARY SCHOOL,THORNTON,CO,80229,,
20,5814,THORNTON MIDDLE SCHOOL,THORNTON,CO,80229,,
20,5816,THORNTON HIGH SCHOOL,THORNTON,CO,80229,,
20,6060,MOUNTAIN RANGE HIGH SCHOOL,WESTMINSTER,CO,80234,,
20,6150,MOUNTAIN VIEW ELEMENTARY SCHOOL,BROOMFIELD,CO,80020,,
20,6342,SHADOW RIDGE MIDDLE SCHOOL,THORNTON,CO,80602,,
20,6355,NORTH MOR ELEMENTARY SCHOOL,NORTHGLENN,CO,80221,,
20,6376,NORTH STAR ELEMENTARY SCHOOL,DENVER,CO,80221,,
20,6398,NORTHGLENN MIDDLE SCHOOL,NORTHGLENN,CO,80233,,
20,6402,NORTHGLENN HIGH SCHOOL,NORTHGLENN,CO,80221,,
20,6802,PROSPECT RIDGE ACADEMY,THORNTON,CO,80229,,
20,6830,NIVER CREEK MIDDLE SCHOOL,DENVER,CO,80221,,
20,7155,PRAIRIE HILLS ELEMENTARY SCHOOL,THORNTON,CO,80602,,
20,7795,SILVER CREEK ELEMENTARY,THORNTON,CO,80602,,
20,8211,THE STUDIO SCHOOL,NORTHGLENN,CO,80233,,
20,8225,STELLAR ELEMENTARY SCHOOL,THORNTON,CO,80241,,
20,8275,STEM SCHOOL,NORTHGLENN,CO,80233,,
20,8361,STUKEY ELEMENTARY SCHOOL,NORTHGLENN,CO,80233,,
20,8842,THORNTON ELEMENTARY SCHOOL,THORNTON,CO,80229,,
20,9431,WESTGATE CHARTER,NORTHGLENN,CO,80233,,
20,9444,WESTLAKE MIDDLE SCHOOL,BROOMFIELD,CO,80020,,
20,9494,WESTVIEW ELEMENTARY SCHOOL,NORTHGLENN,CO,80234,,
20,9682,WOODGLEN ELEMENTARY SCHOOL,THORNTON,CO,80233,,
30,20,ADAMS CITY MIDDLE SCHOOL,COMMERCE CITY,CO,80022,,
30,22,LESTER R ARNOLD HIGH SCHOOL,COMMERCE CITY,CO,80022,,
30,24,ADAMS CITY HIGH SCHOOL,COMMERCE CITY,CO,80022,,
30,124,STARS EARLY LEARNING CENTER,COMMERCE CITY,CO,80022,,
30,186,ALSUP ELEMENTARY SCHOOL,COMMERCE CITY,CO,80022,,
30,1426,CENTRAL ELEMENTARY SCHOOL,COMMERCE CITY,CO,80022,,
30,2308,DUPONT ELEMENTARY SCHOOL,COMMERCE CITY,CO,80022,,
30,4516,KEARNEY MIDDLE SCHOOL,COMMERCE CITY,CO,80022,,
30,4536,KEMP ELEMENTARY SCHOOL,COMMERCE CITY,CO,80022,,
30,5880,MILDRED L SANVILLE PRESCHOOL,COMMERCE CITY,CO,80022,,
30,5982,MONACO ELEMENTARY SCHOOL,COMMERCE CITY,CO,80022,,
30,6534,HANSON ELEMENTARY SCHOOL,COMMERCE CITY,CO,80022,,
30,7500,ROSE HILL ELEMENTARY SCHOOL,COMMERCE CITY,CO,80022,,
40,700,BELLE CREEK CHARTER SCHOOL,HENDERSON,CO,80640,,
40,1021,BRIGHTON HERITAGE ACADEMY,BRIGHTON,CO,80601,,
40,1022,BRIGHTON HIGH SCHOOL,BRIGHTON,CO,80601,,
40,1052,BROMLEY EAST CHARTER SCHOOL,BRIGHTON,CO,80601,,
40,2399,EAGLE RIDGE ACADEMY,BRIGHTON,CO,80601,,
40,2945,FOUNDATIONS ACADEMY,BRIGHTON,CO,80601,,
40,3900,HENDERSON ELEMENTARY SCHOOL,HENDERSON,CO,80640,,
40,4950,LANDMARK ACADEMY AT REUNION,COMMERCE CITY,CO,80022,,
40,5615,MARY E PENNOCK ELEMENTARY SCHOOL,BRIGHTON,CO,80601,,
40,6294,NORTH ELEMENTARY SCHOOL,BRIGHTON,CO,80601,,
40,6395,NORTHEAST ELEMENTARY SCHOOL,BRIGHTON,CO,80601,,
40,6638,OVERLAND TRAIL MIDDLE SCHOOL,BRIGHTON,CO,80601,,
40,6702,OTHO E STUART MIDDLE SCHOOL,COMMERCE CITY,CO,80022,,
40,7129,PRAIRIE VIEW HIGH SCHOOL,HENDERSON,CO,80640,,
40,7131,PRAIRIE VIEW MIDDLE SCHOOL,HENDERSON,CO,80640,,
40,7714,SECOND CREEK ELEMENTARY SCHOOL,COMMERCE CITY,CO,80022,,
40,7725,SD 27J PRESCHOOL AT THE BRIGHTON LRC,BRIGHTON,CO,80601,,
40,8032,JOHN W THIMMIG ELEMENTARY SCHOOL,HENDERSON,CO,80640,,
40,8060,SOUTH ELEMENTARY SCHOOL,BRIGHTON,CO,80601,,
40,8130,SOUTHEAST ELEMENTARY SCHOOL,BRIGHTON,CO,80601,,
40,8820,TURNBERRY ELEMENTARY,COMMERCE CITY,CO,80022,,
40,9230,VIKAN MIDDLE SCHOOL,BRIGHTON,CO,80601,,
40,9426,WEST RIDGE ELEMENTARY,THORNTON,CO,80602,,
50,763,BENNETT PRESCHOOL,BENNETT,CO,80102,,
50,770,BENNETT ELEMENTARY SCHOOL,BENNETT,CO,80102,,
50,774,BENNETT MIDDLE SCHOOL,BENNETT,CO,80102,,
50,775,BENNETT HIGH SCHOOL,BENNETT,CO,80102,,
50,1889,CORRIDOR COMMUNITY ACADEMY,BENNETT,CO,80102,,
60,7133,PRAIRIE CREEKS CHARTER SCHOOL,STRASBURG,CO,80136,,
60,8328,STRASBURG ELEMENTARY SCHOOL,STRASBURG,CO,80136,,
60,8332,HEMPHILL MIDDLE SCHOOL,STRASBURG,CO,80136,,
60,8334,STRASBURG HIGH SCHOOL,STRASBURG,CO,80136,,
70,1622,CLARA E. METZ ELEMENTARY SCHOOL,DENVER,CO,80221,,
70,2035,CROWN POINTE CHARTER ACADEMY,WESTMINSTER,CO,80031,,
70,2876,FAIRVIEW ELEMENTARY SCHOOL,DENVER,CO,80221,,
70,3144,FRANCIS M. DAY ELEMENTARY SCHOOL,DENVER,CO,80221,,
70,3649,GREGORY HILL PRESCHOOL,WESTMINSTER,CO,80030,,
70,3792,HARRIS PARK ELEMENTARY SCHOOL,WESTMINSTER,CO,80030,,
70,3931,HIDDEN LAKE HIGH SCHOOL,WESTMINSTER,CO,80030,,
70,4465,JOSEPHINE HODGKINS ELEMENTARY SCHOOL,DENVER,CO,80221,,
70,5388,M. SCOTT CARPENTER MIDDLE SCHOOL,DENVER,CO,80221,,
70,5834,MESA ELEMENTARY SCHOOL,WESTMINSTER,CO,80030,,
70,7305,IVER C. RANUM MIDDLE SCHOOL,DENVER,CO,80221,,
70,7810,FLYNN ELEMENTARY SCHOOL,WESTMINSTER,CO,80030,,
70,7812,SHAW HEIGHTS MIDDLE SCHOOL,WESTMINSTER,CO,80030,,
70,7860,SHERRELWOOD ELEMENTARY SCHOOL,DENVER,CO,80221,,
70,7952,SKYLINE VISTA ELEMENTARY SCHOOL,DENVER,CO,80221,,
70,8406,SUNSET RIDGE ELEMENTARY SCHOOL,WESTMINSTER,CO,80030,,
70,8798,TENNYSON KNOLLS ELEMENTARY SCHOOL,ARVADA,CO,80003,,
70,9462,WESTMINSTER ELEMENTARY SCHOOL,WESTMINSTER,CO,80030,,
70,9466,WESTMINSTER HIGH SCHOOL,WESTMINSTER,CO,80030,,
100,114,ORTEGA MIDDLE SCHOOL,ALAMOSA,CO,81101,,
100,115,ALAMOSA ELEMENTARY SCHOOL,ALAMOSA,CO,81101,,
100,118,ALAMOSA HIGH SCHOOL,ALAMOSA,CO,81101,,
100,368,ALAMOSA OMBUDSMAN SCHOOL OF EXCELLENCE,ALAMOSA,CO,81101,,
110,7626,SANGRE DE CRISTO ELEMENTARY SCHOOL,HOOPER,CO,81136,,
110,7630,SANGRE DE CRISTO UNDIVIDED HIGH SCHOOL,MOSCA,CO,81146,,
120,206,COLORADO'S FINEST ALTERNATIVE HIGH SCHOOL,ENGLEWOOD,CO,80110,,
120,1514,CHARLES HAY WORLD SCHOOL,ENGLEWOOD,CO,80113,,
120,1556,CHERRELYN ELEMENTARY SCHOOL,ENGLEWOOD,CO,80113,,
120,1652,CLAYTON ELEMENTARY SCHOOL,ENGLEWOOD,CO,80110,,
120,2746,ENGLEWOOD HIGH SCHOOL,ENGLEWOOD,CO,80113,,
120,2750,ENGLEWOOD LEADERSHIP ACADEMY,ENGLEWOOD,CO,80113,,
120,2752,ENGLEWOOD MIDDLE SCHOOL,ENGLEWOOD,CO,80110,,
120,5318,ENGLEWOOD EARLY CHILDHOOD EDUCATION CENTER AT MADDOX,ENGLEWOOD,CO,80110,,
120,9620,WM E BISHOP ELEMENTARY SCHOOL,ENGLEWOOD,CO,80110,,
123,3054,SHERIDAN ELEMENTARY,ENGLEWOOD,CO,80150,,
123,7837,SHERIDAN MIDDLE SCHOOL,ENGLEWOOD,CO,80150,,
123,7842,SHERIDAN HIGH SCHOOL,DENVER,CO,80236,,
123,7843,EARLY CHILDHOOD EDUCATION CENTER,ENGLEWOOD,CO,80150,,
130,16,FOX HOLLOW ELEMENTARY SCHOOL,AURORA,CO,80116,,
130,18,LIBERTY MIDDLE SCHOOL,AURORA,CO,80016,,
130,141,SKY VISTA MIDDLE SCHOOL,AURORA,CO,80015,,
130,242,ANTELOPE RIDGE ELEMENTARY SCHOOL,AURORA,CO,80015,,
130,243,COYOTE HILLS ELEMENTARY SCHOOL,AURORA,CO,80016,,
130,348,ARROWHEAD ELEMENTARY SCHOOL,AURORA,CO,80013,,
130,442,ASPEN CROSSING ELEMENTARY SCHOOL,CENTENNIAL,CO,80015,,
130,714,BELLEVIEW ELEMENTARY SCHOOL,GREENWOOD VILLAGE,CO,80111,,
130,1155,BUFFALO TRAIL ELEMENTARY SCHOOL,AURORA,CO,80016,,
130,1273,CANYON CREEK ELEMENTARY SCHOOL,AURORA,CO,80015,,
130,1510,CHALLENGE SCHOOL,DENVER,CO,80231,,
130,1551,CHEROKEE TRAIL HIGH SCHOOL,AURORA,CO,80016,,
130,1566,CAMPUS MIDDLE SCHOOL,GREENWOOD VILLAGE,CO,80111,,
130,1568,WEST MIDDLE SCHOOL,GREENWOOD VILLAGE,CO,80121,,
130,1570,CHERRY CREEK HIGH SCHOOL,GREENWOOD VILLAGE,CO,80111,,
130,1571,CHERRY CREEK CHARTER ACADEMY,GREENWOOD VILLAGE,CO,80111,,
130,1572,HIGH PLAINS ELEMENTARY SCHOOL,GREENWOOD VILLAGE,CO,80111,,
130,1574,CHERRY HILLS VILLAGE ELEMENTARY SCHOOL,CHERRY HILLS VILLAGE,CO,80110,,
130,1614,CIMARRON ELEMENTARY SCHOOL,AURORA,CO,80013,,
130,1916,COTTONWOOD CREEK ELEMENTARY SCHOOL,ENGLEWOOD,CO,80111,,
130,1970,CREEKSIDE ELEMENTARY SCHOOL,CENTENNIAL,CO,80016,,
130,2094,DAKOTA VALLEY ELEMENTARY SCHOOL,AURORA,CO,80013,,
130,2292,DRY CREEK ELEMENTARY SCHOOL,ENGLEWOOD,CO,80112,,
130,2357,EAGLECREST HIGH SCHOOL,CENTENNIAL,CO,80015,,
130,2428,EASTRIDGE COMMUNITY ELEMENTARY SCHOOL,AURORA,CO,80014,,
130,2897,FALCON CREEK MIDDLE SCHOOL,AURORA,CO,80016,,
130,3030,FOX RIDGE MIDDLE SCHOOL,AURORA,CO,80016,,
130,3589,GRANDVIEW HIGH SCHOOL,AURORA,CO,80016,,
130,3648,GREENWOOD ELEMENTARY SCHOOL,GREENWOOD VILLAGE,CO,80111,,
130,3926,HERITAGE ELEMENTARY SCHOOL,CENTENNIAL,CO,80111,,
130,3988,HIGHLINE COMMUNITY ELEMENTARY SCHOOL,AURORA,CO,80012,,
130,4062,HOLLY HILLS ELEMENTARY SCHOOL,DENVER,CO,80222,,
130,4078,HOMESTEAD ELEMENTARY SCHOOL,CENTENNIAL,CO,80112,,
130,4100,HORIZON MIDDLE SCHOOL,AURORA,CO,80013,,
130,4276,INDEPENDENCE ELEMENTARY SCHOOL,AURORA,CO,80015,,
130,4280,INDIAN RIDGE ELEMENTARY SCHOOL,AURORA,CO,80015,,
130,4975,LAREDO MIDDLE SCHOOL,AURORA,CO,80015,,
130,5744,MEADOW POINT ELEMENTARY SCHOOL,AURORA,CO,80015,,
130,5934,MISSION VIEJO ELEMENTARY SCHOOL,AURORA,CO,80013,,
130,6625,OVERLAND HIGH SCHOOL,AURORA,CO,80012,,
130,6820,PEAKVIEW ELEMENTARY SCHOOL,CENTENNIAL,CO,80015,,
130,6955,PINE RIDGE ELEMENTARY SCHOOL,AURORA,CO,80016,,
130,7102,POLTON COMMUNITY ELEMENTARY SCHOOL,AURORA,CO,80014,,
130,7116,PONDEROSA ELEMENTARY SCHOOL,AURORA,CO,80012,,
130,7158,PRAIRIE MIDDLE SCHOOL,AURORA,CO,80012,,
130,7277,RED HAWK RIDGE ELEMENTARY SCHOOL,CENTENNIAL,CO,80112,,
130,7476,ROLLING HILLS ELEMENTARY SCHOOL,AURORA,CO,80015,,
130,7559,SAGEBRUSH ELEMENTARY SCHOOL,AURORA,CO,80015,,
130,8020,SMOKY HILL HIGH SCHOOL,AURORA,CO,80015,,
130,8380,SUMMIT ELEMENTARY SCHOOL,AURORA,CO,80015,,
130,8394,SUNRISE ELEMENTARY SCHOOL,AURORA,CO,80013,,
130,8848,THUNDER RIDGE MIDDLE SCHOOL,AURORA,CO,80015,,
130,8850,TIMBERLINE ELEMENTARY SCHOOL,CENTENNIAL,CO,80015,,
130,8887,TRAILS WEST ELEMENTARY SCHOOL,CENTENNIAL,CO,80015,,
130,9108,VILLAGE EAST COMMUNITY ELEMENTARY SCHOOL,AURORA,CO,80012,,
130,9200,WALNUT HILLS COMMUNITY ELEMENTARY SCHOOL,CENTENNIAL,CO,80112,,
130,9624,WILLOW CREEK ELEMENTARY SCHOOL,CENTENNIAL,CO,80112,,
140,298,ARAPAHOE HIGH SCHOOL,CENTENNIAL,CO,80122,,
140,752,FRANKLIN ELEMENTARY SCHOOL,CENTENNIAL,CO,80121,,
140,1382,CENTENNIAL ACADEMY OF FINE ARTS EDUCATION,LITTLETON,CO,80123,,
140,2382,EAST ELEMENTARY SCHOOL,LITTLETON,CO,80120,,
140,2804,EUCLID MIDDLE SCHOOL,LITTLETON,CO,80120,,
140,2926,FIELD ELEMENTARY SCHOOL,LITTLETON,CO,80121,,
140,3472,GODDARD MIDDLE SCHOOL,LITTLETON,CO,80123,,
140,3930,HERITAGE HIGH SCHOOL,LITTLETON,CO,80120,,
140,3950,HIGHLAND ELEMENTARY SCHOOL,CENTENNIAL,CO,80121,,
140,4316,NEWTON MIDDLE SCHOOL,CENTENNIAL,CO,80122,,
140,4447,JOHN WESLEY POWELL MIDDLE SCHOOL,LITTLETON,CO,80122,,
140,5224,LITTLETON HIGH SCHOOL,LITTLETON,CO,80121,,
140,5229,LITTLETON ACADEMY,LITTLETON,CO,80120,,
140,5233,LITTLETON PREP CHARTER SCHOOL,LITTLETON,CO,80123,,
140,5236,LOIS LENSKI ELEMENTARY SCHOOL,CENTENNIAL,CO,80121,,
140,5572,HOPKINS ELEMENTARY SCHOOL,CENTENNIAL,CO,80122,,
140,5574,TWAIN ELEMENTARY SCHOOL,CENTENNIAL,CO,80122,,
140,6292,VILLAGE AT NORTH,LITTLETON,CO,80120,,
140,6814,PEABODY ELEMENTARY SCHOOL,CENTENNIAL,CO,80121,,
140,7518,RUNYON ELEMENTARY SCHOOL,LITTLETON,CO,80120,,
140,7606,SANDBURG ELEMENTARY SCHOOL,CENTENNIAL,CO,80122,,
140,8064,MOODY ELEMENTARY SCHOOL,LITTLETON,CO,80120,,
140,9600,WILDER ELEMENTARY SCHOOL,LITTLETON,CO,80123,,
170,2136,DEER TRAIL ELEMENTARY SCHOOL,DEER TRAIL,CO,80105,,
170,2140,DEER TRAIL JUNIOR-SENIOR HIGH SCHOOL,DEER TRAIL,CO,80105,,
180,213,AXL ACADEMY,AURORA,CO,80012,,
180,214,ALTURA ELEMENTARY SCHOOL,AURORA,CO,80011,,
180,219,APS ONLINE SCHOOL,AURORA,CO,80010,,
180,310,ARKANSAS ELEMENTARY SCHOOL,AURORA,CO,80017,,
180,458,AURORA ACADEMY CHARTER SCHOOL,AURORA,CO,80010,,
180,464,AURORA HILLS MIDDLE SCHOOL,AURORA,CO,80012,,
180,465,AURORA FRONTIER K-8,AURORA,CO,80013,,
180,914,BOSTON K-8 SCHOOL,AURORA,CO,80010,,
180,1458,AURORA CENTRAL HIGH SCHOOL,AURORA,CO,80010,,
180,1470,CENTURY ELEMENTARY SCHOOL,AURORA,CO,80014,,
180,1720,CLYDE MILLER K-8,AURORA,CO,80011,,
180,1800,COLUMBIA MIDDLE SCHOOL,AURORA,CO,80013,,
180,1948,CRAWFORD ELEMENTARY SCHOOL,AURORA,CO,80010,,
180,2095,DALTON ELEMENTARY SCHOOL,AURORA,CO,80013,,
180,2114,DARTMOUTH ELEMENTARY SCHOOL,AURORA,CO,80013,,
180,2384,EAST MIDDLE SCHOOL,AURORA,CO,80011,,
180,2618,ELKHART ELEMENTARY SCHOOL,AURORA,CO,80011,,
180,2951,AURORA PUBLIC SCHOOLS CHILD DEVELOPMENT CENTER,AURORA,CO,80011,,
180,2995,FLETCHER INTERMEDIATE SCIENCE & TECHNOLOGY SCHOOL,AURORA,CO,80010,,
180,2998,FLETCHER PRIMARY SCHOOL,AURORA,CO,80010,,
180,3272,FULTON ELEMENTARY SCHOOL,AURORA,CO,80010,,
180,3354,GATEWAY HIGH SCHOOL,AURORA,CO,80012,,
180,3471,GLOBAL VILLAGE ACADEMY,AURORA,CO,80017,,
180,4024,HINKLEY HIGH SCHOOL,AURORA,CO,80011,,
180,4270,IOWA ELEMENTARY SCHOOL,AURORA,CO,80017,,
180,4385,JAMAICA CHILD DEVELOPMENT CENTER,AURORA,CO,80011,,
180,4426,JEWELL ELEMENTARY SCHOOL,AURORA,CO,80012,,
180,4646,KENTON ELEMENTARY SCHOOL,AURORA,CO,80010,,
180,4970,LANSING ELEMENTARY SCHOOL,AURORA,CO,80010,,
180,4973,LAREDO ELEMENTARY SCHOOL,AURORA,CO,80011,,
180,5298,LOTUS SCHOOL FOR EXCELLENCE,AURORA,CO,80012,,
180,5361,LYN KNOLL ELEMENTARY SCHOOL,AURORA,CO,80011,,
180,5751,MEADOWOOD CHILD DEVELOPMENT CENTER,AURORA,CO,80013,,
180,6068,MONTVIEW MATH & HEALTH SCIENCES ELEMENTARY SCHOOL,AURORA,CO,80010,,
180,6160,MRACHEK MIDDLE SCHOOL,AURORA,CO,80013,,
180,6189,MURPHY CREEK K-8 SCHOOL,AURORA,CO,80018,,
180,6219,NEW AMERICA SCHOOL,DENVER,CO,80230,,
180,6310,NORTH MIDDLE SCHOOL HEALTH SCIENCES AND TECHNOLOGY CAMPUS,AURORA,CO,80010,,
180,6546,OPTIONS SCHOOL,AURORA,CO,80010,,
180,6728,PARIS ELEMENTARY SCHOOL,AURORA,CO,80010,,
180,6758,PARK LANE ELEMENTARY SCHOOL,AURORA,CO,80011,,
180,6869,PEORIA ELEMENTARY SCHOOL,AURORA,CO,80011,,
180,7232,AURORA QUEST K-8,AURORA,CO,80012,,
180,7250,RANGEVIEW HIGH SCHOOL,AURORA,CO,80013,,
180,7558,SABLE ELEMENTARY SCHOOL,AURORA,CO,80011,,
180,7865,SIDE CREEK ELEMENTARY SCHOOL,AURORA,CO,80013,,
180,7932,SIXTH AVENUE ELEMENTARY SCHOOL,AURORA,CO,80011,,
180,8078,SOUTH MIDDLE SCHOOL,AURORA,CO,80011,,
180,8356,WILLIAM SMITH HIGH SCHOOL,AURORA,CO,80011,,
180,8858,TOLLGATE ELEMENTARY SCHOOL,AURORA,CO,80017,,
180,9056,VANGUARD CLASSICAL SCHOOL,DENVER,CO,80230,,
180,9059,VASSAR ELEMENTARY SCHOOL,AURORA,CO,80013,,
180,9060,VAUGHN ELEMENTARY SCHOOL,AURORA,CO,80011,,
180,9083,VISTA PEAK P-8 EXPLORATORY,AURORA,CO,80018,,
180,9125,VISTA PEAK 9-12 PREPARATORY,AURORA,CO,80018,,
180,9140,VIRGINIA COURT ELEMENTARY SCHOOL,AURORA,CO,80012,,
180,9396,AURORA WEST COLLEGE PREPARATORY ACADEMY,AURORA,CO,80010,,
180,9514,WHEELING ELEMENTARY SCHOOL,AURORA,CO,80012,,
180,9756,YALE ELEMENTARY SCHOOL,AURORA,CO,80013,,
190,1168,BYERS ELEMENTARY SCHOOL,BYERS,CO,80103,,
190,1176,BYERS JUNIOR-SENIOR HIGH SCHOOL,BYERS,CO,80103,,
220,64,ARCHULETA COUNTY HIGH SCHOOL,PAGOSA SPRINGS,CO,81147,,
220,6652,PAGOSA SPRINGS ELEMENTARY SCHOOL,PAGOSA SPRINGS,CO,81147,,
220,6657,PAGOSA SPRINGS MIDDLE SCHOOL,PAGOSA SPRINGS,CO,81147,,
220,6658,PAGOSA SPRINGS HIGH SCHOOL,PAGOSA SPRINGS,CO,81147,,
230,9222,WALSH ELEMENTARY SCHOOL,WALSH,CO,81090,,
230,9226,WALSH HIGH SCHOOL,WALSH,CO,81090,,
240,7174,PRITCHETT ELEMENTARY SCHOOL,PRITCHETT,CO,81064,,
240,7176,PRITCHETT MIDDLE SCHOOL,PRITCHETT,CO,81064,,
240,7180,PRITCHETT HIGH SCHOOL,PRITCHETT,CO,81064,,
250,8160,SPRINGFIELD ELEMENTARY SCHOOL,SPRINGFIELD,CO,81073,,
250,8164,SPRINGFIELD JUNIOR HIGH SCHOOL,SPRINGFIELD,CO,81073,,
250,8168,SPRINGFIELD HIGH SCHOOL,SPRINGFIELD,CO,81073,,
260,9085,V.I.L.A.S. ONLINE SCHOOL,VILAS,CO,81087,,
260,9090,VILAS ELEMENTARY SCHOOL,VILAS,CO,81087,,
260,9100,VILAS UNDIVIDED HIGH SCHOOL,VILAS,CO,81087,,
270,1248,CAMPO ELEMENTARY SCHOOL,CAMPO,CO,81029,,
270,1252,CAMPO UNDIVIDED HIGH SCHOOL,CAMPO,CO,81029,,
290,1812,LAS ANIMAS ELEMENTARY SCHOOL,LAS ANIMAS,CO,81054,,
290,4495,JUMP START LEARNING CENTER,LAS ANIMAS,CO,81054,,
290,4986,LAS ANIMAS MIDDLE SCHOOL,LAS ANIMAS,CO,81054,,
290,4990,LAS ANIMAS HIGH SCHOOL,LAS ANIMAS,CO,81054,,
310,5666,MC CLAVE ELEMENTARY SCHOOL,MC CLAVE,CO,81057,,
310,5670,MC CLAVE UNDIVIDED HIGH SCHOOL,MC CLAVE,CO,81057,,
470,60,LEGACY ELEMENTARY SCHOOL,FREDERICK,CO,80504,,
470,61,ALPINE ELEMENTARY SCHOOL,LONGMONT,CO,80501,,
470,71,ASPEN RIDGE PREPATORY SCHOOL,ERIE,CO,80516,,
470,226,ALTONA MIDDLE SCHOOL,LONGMONT,CO,80503,,
470,875,BLACK ROCK ELEMENTARY,ERIE,CO,80516,,
470,878,BLUE MOUNTAIN ELEMENTARY,LONGMONT,CO,80503,,
470,1148,BURLINGTON ELEMENTARY SCHOOL,LONGMONT,CO,80501,,
470,1245,CENTENNIAL ELEMENTARY,FIRESTONE,CO,80504,,
470,1284,CARBON VALLEY ACADEMY,FREDERICK,CO,80530,,
470,1434,CENTRAL ELEMENTARY SCHOOL,LONGMONT,CO,80501,,
470,1844,COLUMBINE ELEMENTARY SCHOOL,LONGMONT,CO,80501,,
470,2343,EAGLE CREST ELEMENTARY SCHOOL,LONGMONT,CO,80503,,
470,2758,ERIE ELEMENTARY SCHOOL,ERIE,CO,80516,,
470,2760,ERIE MIDDLE SCHOOL,ERIE,CO,80516,,
470,2761,ERIE HIGH SCHOOL,ERIE,CO,80516,,
470,2912,FALL RIVER ELEMENTARY SCHOOL,LONGMONT,CO,80501,,
470,2964,FLAGSTAFF CHARTER ACADEMY,LONGMONT,CO,80501,,
470,3192,FREDERICK ELEMENTARY SCHOOL,FREDERICK,CO,80530,,
470,3194,COAL RIDGE MIDDLE SCHOOL,FIRESTONE,CO,80504,,
470,3196,FREDERICK SENIOR HIGH SCHOOL,FREDERICK,CO,80530,,
470,4202,HYGIENE ELEMENTARY SCHOOL,LONGMONT,CO,80503,,
470,4278,INDIAN PEAKS ELEMENTARY SCHOOL,LONGMONT,CO,80501,,
470,4333,IMAGINE CHARTER,FIRESTONE,CO,80504,,
470,5181,RED HAWK ELEMENTARY,ERIE,CO,80516,,
470,5246,LOMA LINDA ELEMENTARY SCHOOL,LONGMONT,CO,80501,,
470,5282,LONGMONT HIGH SCHOOL,LONGMONT,CO,80501,,
470,5284,LONGMONT ESTATES ELEMENTARY SCHOOL,LONGMONT,CO,80503,,
470,5286,SUNSET MIDDLE SCHOOL,LONGMONT,CO,80501,,
470,5288,LONGS PEAK MIDDLE SCHOOL,LONGMONT,CO,80501,,
470,5364,LYONS ELEMENTARY SCHOOL,LYONS,CO,80540,,
470,5368,LYONS MIDDLE/SENIOR HIGH SCHOOL,LYONS,CO,80540,,
470,5722,MEAD HIGH SCHOOL,LONGMONT,CO,80504,,
470,5726,MEAD ELEMENTARY SCHOOL,MEAD,CO,80542,,
470,5730,MEAD MIDDLE SCHOOL,MEAD,CO,80542,,
470,6156,MOUNTAIN VIEW ELEMENTARY SCHOOL,LONGMONT,CO,80501,,
470,6274,NIWOT ELEMENTARY SCHOOL,NIWOT,CO,80503,,
470,6276,NIWOT HIGH SCHOOL,NIWOT,CO,80503,,
470,6344,HERITAGE MIDDLE SCHOOL,LONGMONT,CO,80501,,
470,6404,NORTHRIDGE ELEMENTARY SCHOOL,LONGMONT,CO,80501,,
470,6498,OLDE COLUMBINE HIGH SCHOOL,LONGMONT,CO,80501,,
470,6499,ADULT EDUCATION/LINCOLN CENTER,LONGMONT,CO,80501,,
470,7157,PRAIRIE RIDGE ELEMENTARY SCHOOL,FIRESTONE,CO,80504,,
470,7464,ROCKY MOUNTAIN ELEMENTARY SCHOOL,LONGMONT,CO,80501,,
470,7565,ST. VRAIN COMMUNITY MONTOSSORI SCHOOL,LONGMONT,CO,80501,,
470,7584,SANBORN ELEMENTARY SCHOOL,LONGMONT,CO,80501,,
470,7789,SILVER CREEK HIGH SCHOOL,LONGMONT,CO,80503,,
470,7839,ST. VRAIN GLOBAL ONLINE ACADEMY,LONGMONT,CO,80501,,
470,7954,SKYLINE HIGH SCHOOL,LONGMONT,CO,80501,,
470,8140,SPANGLER ELEMENTARY SCHOOL,LONGMONT,CO,80501,,
470,8903,TRAIL RIDGE MIDDLE SCHOOL,LONGMONT,CO,80501,,
470,8927,TWIN PEAKS CHARTER ACADEMY,LONGMONT,CO,80501,,
470,9430,WESTVIEW MIDDLE SCHOOL,LONGMONT,CO,80503,,
480,125,ARAPAHOE RIDGE HIGH SCHOOL,BOULDER,CO,80303,,
480,441,ASPEN CREEK K-8 SCHOOL,BROOMFIELD,CO,80020,,
480,652,BEAR CREEK ELEMENTARY SCHOOL,BOULDER,CO,80305,,
480,872,BIRCH ELEMENTARY SCHOOL,BROOMFIELD,CO,80020,,
480,919,BOULDER COMMUNITY SCHOOL/INTEGRATED STUDIES,BOULDER,CO,80303,,
480,924,BOULDER HIGH SCHOOL,BOULDER,CO,80302,,
480,930,BOULDER UNIVERSAL,BOULDER,CO,80303,,
480,934,BOULDER PREP CHARTER HIGH SCHOOL,BOULDER,CO,80301,,
480,1066,BROOMFIELD HEIGHTS MIDDLE SCHOOL,BROOMFIELD,CO,80020,,
480,1070,BROOMFIELD HIGH SCHOOL,BROOMFIELD,CO,80020,,
480,1136,MANHATTAN MIDDLE SCHOOL OF THE ARTS AND ACADEMICS,BOULDER,CO,80303,,
480,1352,CASEY MIDDLE SCHOOL,BOULDER,CO,80304,,
480,1380,CENTAURUS HIGH SCHOOL,LAFAYETTE,CO,80026,,
480,1390,CENTENNIAL MIDDLE SCHOOL,BOULDER,CO,80304,,
480,1725,COAL CREEK ELEMENTARY SCHOOL,LOUISVILLE,CO,80027,,
480,1842,COLUMBINE ELEMENTARY SCHOOL,BOULDER,CO,80304,,
480,1883,COMMUNITY MONTESSORI SCHOOL,BOULDER,CO,80305,,
480,1996,CREST VIEW ELEMENTARY SCHOOL,BOULDER,CO,80304,,
480,2240,DOUGLASS ELEMENTARY SCHOOL,BOULDER,CO,80303,,
480,2552,EISENHOWER ELEMENTARY SCHOOL,BOULDER,CO,80303,,
480,2589,ELDORADO K-8 SCHOOL,SUPERIOR,CO,80027,,
480,2702,EMERALD ELEMENTARY SCHOOL,BROOMFIELD,CO,80020,,
480,2892,FAIRVIEW HIGH SCHOOL,BOULDER,CO,80305,,
480,2940,FIRESIDE ELEMENTARY SCHOOL,LOUISVILLE,CO,80027,,
480,2970,FLATIRONS ELEMENTARY SCHOOL,BOULDER,CO,80302,,
480,3022,FOOTHILL ELEMENTARY SCHOOL,BOULDER,CO,80304,,
480,3488,GOLD HILL ELEMENTARY SCHOOL,GOLD HILL,CO,80302,,
480,3499,HALCYON SCHOOL (SPECIAL EDUCATION),BOULDER,CO,80303,,
480,3882,HEATHERWOOD ELEMENTARY SCHOOL,BOULDER,CO,80301,,
480,3940,HIGH PEAKS ELEMENTARY SCHOOL,BOULDER,CO,80303,,
480,4386,JAMESTOWN ELEMENTARY SCHOOL,JAMESTOWN,CO,80455,,
480,4496,JUSTICE HIGH CHARTER SCHOOL,LAFAYETTE,CO,80026,,
480,4792,KOHL ELEMENTARY SCHOOL,BROOMFIELD,CO,80020,,
480,4874,LAFAYETTE ELEMENTARY SCHOOL,LAFAYETTE,CO,80026,,
480,4878,ANGEVINE MIDDLE SCHOOL,LAFAYETTE,CO,80026,,
480,5302,LOUISVILLE ELEMENTARY SCHOOL,LOUISVILLE,CO,80027,,
480,5306,LOUISVILLE MIDDLE SCHOOL,LOUISVILLE,CO,80027,,
480,5606,CREEKSIDE ELEMENTARY SCHOOL AT MARTIN PARK,BOULDER,CO,80305,,
480,5838,MESA ELEMENTARY SCHOOL,BOULDER,CO,80305,,
480,5999,MONARCH HIGH SCHOOL,LOUISVILLE,CO,80027,,
480,6000,MONARCH K-8 SCHOOL,LOUISVILLE,CO,80027,,
480,6195,NEW VISTA HIGH SCHOOL,BOULDER,CO,80302,,
480,6208,NEDERLAND ELEMENTARY SCHOOL,NEDERLAND,CO,80466,,
480,6212,NEDERLAND MIDDLE-SENIOR HIGH SCHOOL,NEDERLAND,CO,80466,,
480,6224,NEVIN PLATT MIDDLE SCHOOL,BOULDER,CO,80303,,
480,6642,HORIZONS K-8 SCHOOL,BOULDER,CO,80303,,
480,6816,PEAK TO PEAK CHARTER SCHOOL,LAFAYETTE,CO,80026,,
480,6962,PIONEER BILINGUAL ELEMENTARY SCHOOL,LAFAYETTE,CO,80026,,
480,7528,RYAN ELEMENTARY SCHOOL,LAFAYETTE,CO,80026,,
480,7592,SANCHEZ ELEMENTARY SCHOOL,LAFAYETTE,CO,80026,,
480,8135,SOUTHERN HILLS MIDDLE SCHOOL,BOULDER,CO,80305,,
480,8387,SUMMIT MIDDLE CHARTER SCHOOL,BOULDER,CO,80305,,
480,8418,SUPERIOR ELEMENTARY SCHOOL,SUPERIOR,CO,80027,,
480,8978,UNIVERSITY HILL ELEMENTARY SCHOOL,BOULDER,CO,80302,,
480,9544,WHITTIER ELEMENTARY SCHOOL,BOULDER,CO,80302,,
490,1130,BUENA VISTA HIGH SCHOOL,BUENA VISTA,CO,81211,,
490,1132,HARRY L MC GINNIS MIDDLE SCHOOL,BUENA VISTA,CO,81211,,
490,1154,BUENA VISTA ONLINE ACADEMY,BUENA VISTA,CO,81211,,
490,1508,CHAFFEE COUNTY HIGH SCHOOL,BUENA VISTA,CO,81211,,
490,4306,AVERY/PARSONS ELEMENTARY SCHOOL,BUENA VISTA,CO,81211,,
500,1554,CREST ACADEMY,SALIDA,CO,81201,,
500,4085,HORIZONS EXPLORATORY ACADEMY,SALIDA,CO,81201,,
500,4680,SALIDA MIDDLE SCHOOL,SALIDA,CO,81201,,
500,5268,LONGFELLOW ELEMENTARY SCHOOL,SALIDA,CO,81201,,
500,7568,SALIDA HIGH SCHOOL,SALIDA,CO,81201,,
500,7643,SALIDA EARLY CHILDHOOD CENTER,SALIDA,CO,81201,,
510,4738,KIT CARSON ELEMENTARY SCHOOL,KIT CARSON,CO,80825,,
510,4742,KIT CARSON JUNIOR-SENIOR HIGH SCHOOL,KIT CARSON,CO,80825,,
520,1608,CHEYENNE WELLS ELEMENTARY SCHOOL,CHEYENNE WELLS,CO,80810,,
520,1610,CHEYENNE WELLS MIDDLE SCHOOL,CHEYENNE WELLS,CO,80810,,
520,1612,CHEYENNE WELLS HIGH SCHOOL,CHEYENNE WELLS,CO,80810,,
540,1660,CLEAR CREEK MIDDLE SCHOOL,EVERGREEN,CO,80439,,
540,3385,GEORGETOWN COMMUNITY SCHOOL,GEORGETOWN,CO,80444,,
540,4212,CARLSON ELEMENTARY SCHOOL,IDAHO SPRINGS,CO,80452,,
540,4216,CLEAR CREEK HIGH SCHOOL,EVERGREEN,CO,80439,,
540,4700,KING-MURPHY ELEMENTARY SCHOOL,EVERGREEN,CO,80439,,
550,1276,CENTAURI MIDDLE SCHOOL,LA JARA,CO,81140,,
550,1378,CENTAURI HIGH SCHOOL,LA JARA,CO,81140,,
550,4836,LA JARA ELEMENTARY SCHOOL,LA JARA,CO,81140,,
550,4837,LA JARA SECOND CHANCE SCHOOL,LA JARA,CO,81140,,
550,5422,MANASSA ELEMENTARY SCHOOL,MANASSA,CO,81141,,
560,7612,SANFORD ELEMENTARY SCHOOL,SANFORD,CO,81151,,
560,7616,SANFORD JUNIOR/SENIOR HIGH SCHOOL,SANFORD,CO,81151,,
580,248,GUADALUPE ELEMENTARY SCHOOL,ANTONITO,CO,81120,,
580,250,ANTONITO JUNIOR HIGH SCHOOL,ANTONITO,CO,81120,,
580,252,ANTONITO HIGH SCHOOL,ANTONITO,CO,81120,,
640,1396,CENTENNIAL JUNIOR HIGH SCHOOL,SAN LUIS,CO,81152,,
640,1398,CENTENNIAL HIGH SCHOOL,SAN LUIS,CO,81152,,
640,7588,CENTENNIAL ELEMENTARY SCHOOL,SAN LUIS,CO,81152,,
740,7876,SIERRA GRANDE ELEMENTARY SCHOOL,BLANCA,CO,81123,,
740,7878,SIERRA GRANDE MIDDLE SCHOOL,BLANCA,CO,81123,,
740,7880,SIERRA GRANDE SENIOR HIGH SCHOOL,BLANCA,CO,81123,,
770,2050,CROWLEY COUNTY ELEMENTARY SCHOOL,ORDWAY,CO,81063,,
770,2054,CROWLEY COUNTY WARD MIDDLE SCHOOL,ORDWAY,CO,81063,,
770,2058,CROWLEY COUNTY HIGH SCHOOL,ORDWAY,CO,81063,,
860,2088,CUSTER COUNTY ELEMENTARY SCHOOL,WESTCLIFFE,CO,81252,,
860,2091,CUSTER MIDDLE SCHOOL,WESTCLIFFE,CO,81252,,
860,2092,CUSTER COUNTY HIGH SCHOOL,WESTCLIFFE,CO,81252,,
870,489,BACKPACK EARLY LEARNING ACADEMY,DELTA,CO,81416,,
870,1372,CEDAREDGE HIGH SCHOOL,CEDAREDGE,CO,81413,,
870,1375,CEDAREDGE MIDDLE SCHOOL,CEDAREDGE,CO,81413,,
870,1952,CRAWFORD ELEMENTARY SCHOOL,CRAWFORD,CO,81415,,
870,2152,DELTA ACADEMY OF APPLIED LEARNING,DELTA,CO,81416,,
870,2155,DELTA COUNTY OPPORTUNITY SCHOOL,DELTA,CO,81416,,
870,2160,DELTA MIDDLE SCHOOL,DELTA,CO,81416,,
870,2164,DELTA HIGH SCHOOL,DELTA,CO,81416,,
870,2166,DELTA VISION SCHOOL,DELTA,CO,81416,,
870,2293,DELTA COUNTY VIRTUAL ACADEMY,DELTA,CO,81416,,
870,3330,GARNET MESA ELEMENTARY SCHOOL,DELTA,CO,81416,,
870,4124,HOTCHKISS ELEMENTARY SCHOOL,HOTCHKISS,CO,81419,,
870,4128,HOTCHKISS HIGH SCHOOL,HOTCHKISS,CO,81419,,
870,4182,CEDAREDGE ELEMENTARY SCHOOL,CEDAREDGE,CO,81413,,
870,5154,LINCOLN ELEMENTARY SCHOOL,DELTA,CO,81416,,
870,6298,NORTH FORK MONTESSORI SCHOOL,HOTCHKISS,CO,81419,,
870,6700,PAONIA ELEMENTARY SCHOOL,PAONIA,CO,81428,,
870,6708,PAONIA HIGH SCHOOL,PAONIA,CO,81428,,
870,8419,SURFACE CREEK VISION SCHOOL,CEDAREDGE,CO,81413,,
870,9146,NORTH FORK VISION SCHOOL,DELTA,CO,81416,,
880,10,ABRAHAM LINCOLN HIGH SCHOOL,DENVER,CO,80219,,
880,40,RIDGE VIEW ACADEMY CHARTER SCHOOL,WATKINS,CO,80137,,
880,67,ACADEMY OF URBAN LEARNING,DENVER,CO,80218,,
880,220,AMESSE ELEMENTARY SCHOOL,DENVER,CO,80239,,
880,388,ASBURY ELEMENTARY SCHOOL,DENVER,CO,80210,,
880,408,VALDEZ ELEMENTARY SCHOOL,DENVER,CO,80211,,
880,418,ASHLEY ELEMENTARY SCHOOL,DENVER,CO,80220,,
880,520,BARNUM ELEMENTARY SCHOOL,DENVER,CO,80219,,
880,540,BARRETT ELEMENTARY SCHOOL,DENVER,CO,80205,,
880,650,BEACH COURT ELEMENTARY SCHOOL,DENVER,CO,80221,,
880,964,BRADLEY ELEMENTARY SCHOOL,DENVER,CO,80222,,
880,1056,BROMWELL ELEMENTARY SCHOOL,DENVER,CO,80206,,
880,1076,BROWN ELEMENTARY SCHOOL,DENVER,CO,80211,,
880,1106,BRYANT WEBSTER K-8 SCHOOL,DENVER,CO,80211,,
880,1295,COLLEGIATE PREPARATORY ACADEMY,DENVER,CO,80239,,
880,1319,FRED N THOMAS CAREER EDUCATION CENTER,DENVER,CO,80211,,
880,1324,CARSON ELEMENTARY SCHOOL,DENVER,CO,80220,,
880,1345,CESAR CHAVEZ ACADEMY DENVER,DENVER,CO,80212,,
880,1400,CENTENNIAL K-8 SCHOOL,DENVER,CO,80212,,
880,1528,CHELTENHAM ELEMENTARY SCHOOL,DENVER,CO,80204,,
880,1748,COLORADO HIGH SCHOOL,DENVER,CO,80204,,
880,1774,COLFAX ELEMENTARY SCHOOL,DENVER,CO,80204,,
880,1785,COLE ARTS AND SCIENCE ACADEMY,DENVER,CO,80205,,
880,1788,COLLEGE VIEW ELEMENTARY SCHOOL,DENVER,CO,80219,,
880,1816,COLUMBIAN ELEMENTARY SCHOOL,DENVER,CO,80211,,
880,1846,COLUMBINE ELEMENTARY SCHOOL,DENVER,CO,80205,,
880,1866,ACE COMMUNITY CHALLENGE CHARTER SCHOOL,DENVER,CO,80204,,
880,1908,CORY ELEMENTARY SCHOOL,DENVER,CO,80210,,
880,1928,COWELL ELEMENTARY SCHOOL,DENVER,CO,80204,,
880,2027,POLARIS AT EBERT ELEMENTARY SCHOOL,DENVER,CO,80205,,
880,2125,DENVER GREEN SCHOOL,DENVER,CO,80224,,
880,2127,DENVER LANGUAGE SCHOOL,DENVER,CO,80220,,
880,2145,DSST: GREEN VALLEY RANCH,DENVER,CO,80249,,
880,2174,DENISON MONTESSORI SCHOOL,DENVER,CO,80219,,
880,2183,DENVER CENTER FOR INTERNATIONAL STUDIES,DENVER,CO,80204,,
880,2184,DENVER SCHOOL OF THE ARTS,DENVER,CO,80220,,
880,2185,DSST: STAPLETON,DENVER,CO,80235,,
880,2188,DENVER CENTER FOR 21ST LEARNING AT WYMAN,DENVER,CO,80218,,
880,2205,DCIS AT FORD,DENVER,CO,80239,,
880,2209,DCIS AT MONTBELLO,DENVER,CO,80239,,
880,2223,DSST: COLE,DENVER,CO,80205,,
880,2258,DOULL ELEMENTARY SCHOOL,DENVER,CO,80219,,
880,2349,ESCALANTE-BIGGS ACADEMY,DENVER,CO,80239,,
880,2364,EAGLETON ELEMENTARY SCHOOL,DENVER,CO,80204,,
880,2398,EAST HIGH SCHOOL,DENVER,CO,80206,,
880,2506,EDISON ELEMENTARY SCHOOL,DENVER,CO,80212,,
880,2652,ELLIS ELEMENTARY SCHOOL,DENVER,CO,80222,,
880,2726,EMILY GRIFFITH TECHNICAL COLLEGE,DENVER,CO,80204,,
880,2755,VENTURE PREP,DENVER,CO,80207,,
880,2757,HIGH TECH EARLY COLLEGE,DENVER,CO,80239,,
880,2789,ESCUELA TLATELOLCO SCHOOL,DENVER,CO,80211,,
880,2856,FAIRMONT K-8 SCHOOL,DENVER,CO,80223,,
880,2880,FAIRVIEW ELEMENTARY SCHOOL,DENVER,CO,80204,,
880,3000,FLORENCE CRITTENTON HIGH SCHOOL,DENVER,CO,80223,,
880,3032,FORCE ELEMENTARY SCHOOL,DENVER,CO,80219,,
880,3038,FORD ELEMENTARY SCHOOL,DENVER,CO,80239,,
880,3296,GARDEN PLACE ELEMENTARY SCHOOL,DENVER,CO,80216,,
880,3340,ARCHULETA ELEMENTARY SCHOOL,DENVER,CO,80239,,
880,3378,GEORGE WASHINGTON HIGH SCHOOL,DENVER,CO,80224,,
880,3426,GILPIN ELEMENTARY SCHOOL,DENVER,CO,80205,,
880,3478,GODSMAN ELEMENTARY SCHOOL,DENVER,CO,80223,,
880,3512,GOLDRICK ELEMENTARY SCHOOL,DENVER,CO,80223,,
880,3600,GRANT MIDDLE SCHOOL,DENVER,CO,80210,,
880,3605,GRANT RANCH K-8 SCHOOL,DENVER,CO,80123,,
880,3639,GIRLS ATHLETIC LEADERSHIP SCHOOL,DENVER,CO,80209,,
880,3641,GREEN VALLEY ELEMENTARY SCHOOL,DENVER,CO,80249,,
880,3647,GREENWOOD ECE-8,DENVER,CO,80239,,
880,3655,GREENLEE ELEMENTARY SCHOOL,DENVER,CO,80204,,
880,3704,GUST ELEMENTARY SCHOOL,DENVER,CO,80219,,
880,3746,HAMILTON MIDDLE SCHOOL,DENVER,CO,80231,,
880,3778,HARRINGTON ELEMENTARY SCHOOL,DENVER,CO,80205,,
880,3987,HIGHLINE ACADEMY CHARTER SCHOOL,DENVER,CO,80231,,
880,3990,HILL CAMPUS OF ARTS AND SCIENCES,DENVER,CO,80220,,
880,4074,HOLM ELEMENTARY SCHOOL,DENVER,CO,80231,,
880,4140,HOWELL K-8 SCHOOL,DENVER,CO,80239,,
880,4444,JOHN F KENNEDY HIGH SCHOOL,DENVER,CO,80227,,
880,4450,JOHNSON ELEMENTARY SCHOOL,DENVER,CO,80219,,
880,4494,JUSTICE HIGH SCHOOL DENVER,DENVER,CO,80211,,
880,4498,KAISER ELEMENTARY SCHOOL,DENVER,CO,80236,,
880,4507,KIPP MONTBELLO COLLEGE PREP,DENVER,CO,80239,,
880,4656,KEPNER MIDDLE SCHOOL,DENVER,CO,80219,,
880,4730,KIPP DENVER COLLEGIATE HIGH SCHOOL,DENVER,CO,80223,,
880,4732,KIPP SUNSHINE PEAK ACADEMY,DENVER,CO,80223,,
880,4762,KNAPP ELEMENTARY SCHOOL,DENVER,CO,80219,,
880,4782,HALLETT FUNDAMENTAL ACADEMY,DENVER,CO,80207,,
880,4795,KUNSMILLER CREATIVE ARTS ACADEMY,DENVER,CO,80219,,
880,4910,LAKE MIDDLE SCHOOL,DENVER,CO,80204,,
880,5129,LIFE SKILLS CENTER OF DENVER,DENVER,CO,80204,,
880,5158,LINCOLN ELEMENTARY SCHOOL,DENVER,CO,80209,,
880,5255,LAKE INTERNATIONAL SCHOOL,DENVER,CO,80204,,
880,5342,LOWRY ELEMENTARY SCHOOL,DENVER,CO,80230,,
880,5430,MANNY MARTINEZ MIDDLE SCHOOL,DENVER,CO,80204,,
880,5448,MANUAL HIGH SCHOOL,DENVER,CO,80205,,
880,5578,MARRAMA ELEMENTARY SCHOOL,DENVER,CO,80249,,
880,5605,MARTIN LUTHER KING JR. EARLY COLLEGE,DENVER,CO,80249,,
880,5608,MATHEMATICS AND SCIENCE LEADERSHIP ACADEMY,DENVER,CO,80223,,
880,5644,MAXWELL ELEMENTARY SCHOOL,DENVER,CO,80239,,
880,5685,MCGLONE ELEMENTARY SCHOOL,DENVER,CO,80239,,
880,5702,MC KINLEY-THATCHER ELEMENTARY SCHOOL,DENVER,CO,80210,,
880,5716,MC MEEN ELEMENTARY SCHOOL,DENVER,CO,80222,,
880,5826,MERRILL MIDDLE SCHOOL,DENVER,CO,80210,,
880,5844,CONTEMPORARY LEARNING ACADEMY HIGH SCHOOL,DENVER,CO,80211,,
880,5995,MONTBELLO HIGH SCHOOL,DENVER,CO,80239,,
880,5998,OAKLAND ELEMENTARY SCHOOL,DENVER,CO,80239,,
880,6002,MONTCLAIR ELEMENTARY SCHOOL,DENVER,CO,80220,,
880,6088,MOORE K-8 SCHOOL,DENVER,CO,80218,,
880,6098,MOREY MIDDLE SCHOOL,DENVER,CO,80218,,
880,6188,MUNROE ELEMENTARY SCHOOL,DENVER,CO,80219,,
880,6239,NOEL COMMUNITY ARTS SCHOOL,DENVER,CO,80239,,
880,6254,NEWLON ELEMENTARY SCHOOL,DENVER,CO,80219,,
880,6314,NORTH HIGH SCHOOL,DENVER,CO,80211,,
880,6350,BRUCE RANDOLPH SCHOOL,DENVER,CO,80205,,
880,6394,NORTHEAST ACADEMY CHARTER SCHOOL,DENVER,CO,80239,,
880,6397,ACADEMIA ANA MARIE SANDOVAL,DENVER,CO,80211,,
880,6479,ODYSSEY CHARTER ELEMENTARY SCHOOL,DENVER,CO,80207,,
880,6508,OMAR D BLAIR CHARTER SCHOOL,DENVER,CO,80249,,
880,6509,ONLINE HIGH SCHOOL,DENVER,CO,80203,,
880,6676,PALMER ELEMENTARY SCHOOL,DENVER,CO,80220,,
880,6754,PARK HILL SCHOOL,DENVER,CO,80220,,
880,6784,NOEL MIDDLE SCHOOL,DENVER,CO,80239,,
880,6957,PIONEER CHARTER SCHOOL,DENVER,CO,80205,,
880,6970,PITT-WALLER K-8 SCHOOL,DENVER,CO,80249,,
880,7045,PLACE BRIDGE ACADEMY,DENVER,CO,80224,,
880,7163,P.R.E.P. (POSITIVE REFOCUS EDUCATION PROGRAM),DENVER,CO,80205,,
880,7554,SABIN WORLD SCHOOL,DENVER,CO,80236,,
880,7578,SAMUELS ELEMENTARY SCHOOL,DENVER,CO,80237,,
880,7694,CHARLES M. SCHENCK (CMS) COMMUNITY SCHOOL,DENVER,CO,80219,,
880,7698,SCHMITT ELEMENTARY SCHOOL,DENVER,CO,80223,,
880,7942,SKINNER MIDDLE SCHOOL,DENVER,CO,80211,,
880,7972,SLAVENS K-8 SCHOOL,DENVER,CO,80210,,
880,7992,SMILEY MIDDLE SCHOOL,DENVER,CO,80207,,
880,8006,SMITH ELEMENTARY SCHOOL,DENVER,CO,80207,,
880,8053,SOAR GREEN VALLEY RANCH,DENVER,CO,80239,,
880,8054,HENRY WORLD SCHOOL GRADES 6-8,DENVER,CO,80227,,
880,8085,WEST DENVER PREP:  FEDERAL CAMPUS,DENVER,CO,80219,,
880,8086,SOUTH HIGH SCHOOL,DENVER,CO,80210,,
880,8131,SOAR AT OAKLAND,DENVER,CO,80239,,
880,8132,SOUTHWEST EARLY COLLEGE CHARTER SCHOOL,DENVER,CO,80236,,
880,8138,SOUTHMOOR ELEMENTARY SCHOOL,DENVER,CO,80237,,
880,8145,SUMMIT ACADEMY,DENVER,CO,80219,,
880,8149,STEPHEN KNIGHT CENTER FOR EARLY EDUCATION,DENVER,CO,80209,,
880,8222,STECK ELEMENTARY SCHOOL,DENVER,CO,80220,,
880,8232,STEDMAN ELEMENTARY SCHOOL,DENVER,CO,80207,,
880,8242,STEELE ELEMENTARY SCHOOL,DENVER,CO,80209,,
880,8422,SWANSEA ELEMENTARY SCHOOL,DENVER,CO,80216,,
880,8453,SWIGERT-MCAULIFFE INTERNATIONAL ECE-8,DENVER,CO,80207,,
880,8776,TELLER ELEMENTARY SCHOOL,DENVER,CO,80206,,
880,8822,THOMAS JEFFERSON HIGH SCHOOL,DENVER,CO,80237,,
880,8888,TRAYLOR ELEMENTARY SCHOOL,DENVER,CO,80227,,
880,8909,TREVISTA ECE-8 AT HORACE MANN,DENVER,CO,80211,,
880,8945,UNIVERSITY PREP,DENVER,CO,80205,,
880,8970,UNIVERSITY PARK ELEMENTARY SCHOOL,DENVER,CO,80210,,
880,8995,VISTA ACADEMY,DENVER,CO,80249,,
880,9050,VALVERDE ELEMENTARY SCHOOL,DENVER,CO,80223,,
880,9336,WEST DENVER PREP - HIGHLAND CAMPUS,DENVER,CO,80211,,
880,9389,WEST DENVER PREP: HARVEY PARK CAMPUS,DENVER,CO,80219,,
880,9390,WEST DENVER PREP - LAKE CAMPUS,DENVER,CO,80204,,
880,9408,WEST HIGH SCHOOL,DENVER,CO,80204,,
880,9425,WESTERLY CREEK ELEMENTARY,DENVER,CO,80238,,
880,9496,CASTRO ELEMENTARY SCHOOL,DENVER,CO,80219,,
880,9548,WHITTIER K-8 SCHOOL,DENVER,CO,80205,,
880,9623,WILLIAM (BILL) ROBERTS K-8 SCHOOL,DENVER,CO,80238,,
880,9739,WYATT-EDISON CHARTER ELEMENTARY SCHOOL,DENVER,CO,80205,,
890,50,RICO ELEMENTARY SCHOOL,RICO,CO,81332,,
890,2216,DOVE CREEK HIGH SCHOOL,DOVE CREEK,CO,81324,,
890,7764,SEVENTH STREET ELEMENTARY SCHOOL,DOVE CREEK,CO,81324,,
900,11,ACADEMY CHARTER SCHOOL,CASTLE ROCK,CO,80104,,
900,12,ACRES GREEN ELEMENTARY SCHOOL,LITTLETON,CO,80124,,
900,135,BEN FRANKLIN ACADEMY,LITTLETON,CO,80000,,
900,201,DANIEL C OAKES HIGH SCHOOL--CASTLE ROCK,CASTLE ROCK,CO,80104,,
900,215,AMERICAN ACADEMY AT CASTLE PINES CHARTER,LONE TREE,CO,80124,,
900,264,CIMARRON MIDDLE,PARKER,CO,80134,,
900,265,CLEAR SKY ELEMENTARY,CASTLE ROCK,CO,80109,,
900,266,GOLD RUSH ELEMENTARY,PARKER,CO,80134,,
900,267,MESA MIDDLE SCHOOL,CASTLE ROCK,CO,80104,,
900,354,ARROWWOOD ELEMENTARY SCHOOL,HIGHLANDS RANCH,CO,80130,,
900,651,BEAR CANYON ELEMENTARY SCHOOL,HIGHLANDS RANCH,CO,80126,,
900,1131,BUFFALO RIDGE ELEMENTARY SCHOOL,CASTLE ROCK,CO,80108,,
900,1270,EARLY CHILDHOOD CENTER,CASTLE ROCK,CO,80104,,
900,1362,CASTLE ROCK ELEMENTARY SCHOOL,CASTLE ROCK,CO,80104,,
900,1367,CASTLE VIEW HIGH SCHOOL,CASTLE ROCK,CO,80109,,
900,1503,CHAPARRAL HIGH SCHOOL,PARKER,CO,80134,,
900,1512,CHALLENGE TO EXCELLENCE CHARTER SCHOOL,PARKER,CO,80134,,
900,1555,CLOVERLEAF HOME EDUCATION,CASTLE ROCK,CO,80104,,
900,1578,CHERRY VALLEY ELEMENTARY SCHOOL,FRANKTOWN,CO,80116,,
900,1579,NORTH STAR ACADEMY,PARKER,CO,80134,,
900,1873,CORE KNOWLEDGE CHARTER SCHOOL,PARKER,CO,80138,,
900,1899,COPPER MESA ELEMENTARY SCHOOL,HIGHLANDS RANCH,CO,80126,,
900,1925,COUGAR RUN ELEMENTARY SCHOOL,HIGHLANDS RANCH,CO,80126,,
900,1934,COYOTE CREEK ELEMENTARY SCHOOL,HIGHLANDS RANCH,CO,80129,,
900,2012,CRESTHILL MIDDLE SCHOOL,HIGHLANDS RANCH,CO,80130,,
900,2226,CASTLE ROCK MIDDLE SCHOOL,CASTLE ROCK,CO,80109,,
900,2230,DOUGLAS COUNTY HIGH SCHOOL,CASTLE ROCK,CO,80104,,
900,2232,ROCK RIDGE ELEMENTARY SCHOOL,CASTLE ROCK,CO,80104,,
900,2233,CHEROKEE TRAIL ELEMENTARY SCHOOL,PARKER,CO,80134,,
900,2234,EAGLE RIDGE ELEMENTARY SCHOOL,LONE TREE,CO,80124,,
900,2338,EAGLE ACADEMY,HIGHLANDS RANCH,CO,80130,,
900,2656,ELDORADO ELEMENTARY SCHOOL,HIGHLANDS RANCH,CO,80126,,
900,2952,MAMMOTH HEIGHTS ELEMENTARY,PARKER,CO,80134,,
900,2953,STONE MOUNTAIN ELEMENTARY,HIGHLANDS RANCH,CO,80129,,
900,2954,ROXBOROUGH INTERMEDIATE,LITTLETON,CO,80125,,
900,2965,FLAGSTONE ELEMENTARY SCHOOL,CASTLE ROCK,CO,80104,,
900,3138,FOX CREEK ELEMENTARY SCHOOL,HIGHLANDS RANCH,CO,80130,,
900,3172,FRANKTOWN ELEMENTARY SCHOOL,FRANKTOWN,CO,80116,,
900,3241,FRONTIER VALLEY ELEMENTARY SCHOOL,PARKER,CO,80138,,
900,3928,HERITAGE ELEMENTARY SCHOOL,HIGHLANDS RANCH,CO,80126,,
900,3980,HIGHLANDS RANCH HIGH SCHOOL,HIGHLANDS RANCH,CO,80130,,
900,3995,HOPE ON-LINE,ENGLEWOOD,CO,80112,,
900,4271,LEGEND HIGH SCHOOL,PARKER,CO,80134,,
900,4292,IRON HORSE ELEMENTARY SCHOOL,PARKER,CO,80138,,
900,4980,LARKSPUR ELEMENTARY SCHOOL,LARKSPUR,CO,80118,,
900,5045,LEGACY POINT ELEMENTARY SCHOOL,PARKER,CO,80134,,
900,5259,STEM MIDDLE & HIGH SCHOOL,HIGHLANDS RANCH,CO,80129,,
900,5405,EDCSD: COLORADO CYBER SCHOOL,CASTLE ROCK,CO,80104,,
900,5607,SAGE CANYON ELEMENTARY,CASTLE ROCK,CO,80104,,
900,5745,MEADOW VIEW ELEMENTARY SCHOOL,CASTLE ROCK,CO,80109,,
900,5843,LONE TREE ELEMENTARY,LONE TREE,CO,80124,,
900,5997,D C S MONTESSORI CHARTER SCHOOL,CASTLE ROCK,CO,80108,,
900,6152,MOUNTAIN VIEW ELEMENTARY SCHOOL,PARKER,CO,80134,,
900,6164,MOUNTAIN RIDGE MIDDLE SCHOOL,HIGHLANDS RANCH,CO,80126,,
900,6165,MOUNTAIN VISTA HIGH SCHOOL,HIGHLANDS RANCH,CO,80126,,
900,6365,SKYVIEW ACADEMY,HIGHLANDS RANCH,CO,80124,,
900,6396,NORTHEAST ELEMENTARY SCHOOL,PARKER,CO,80134,,
900,6406,NORTHRIDGE ELEMENTARY SCHOOL,HIGHLANDS RANCH,CO,80126,,
900,6772,SAGEWOOD MIDDLE SCHOOL,PARKER,CO,80134,,
900,6773,SIERRA MIDDLE SCHOOL,PARKER,CO,80138,,
900,6938,PINE GROVE ELEMENTARY SCHOOL,PARKER,CO,80134,,
900,6940,PINE LANE ELEMENTARY,PARKER,CO,80138,,
900,6961,PIONEER ELEMENTARY SCHOOL,PARKER,CO,80138,,
900,7047,PLATTE RIVER CHARTER ACADEMY,HIGHLANDS RANCH,CO,80126,,
900,7096,ROXBOROUGH ELEMENTARY SCHOOL,LITTLETON,CO,80125,,
900,7118,PONDEROSA HIGH SCHOOL,PARKER,CO,80134,,
900,7134,PRAIRIE CROSSING ELEMENTARY SCHOOL,PARKER,CO,80134,,
900,7245,RANCH VIEW MIDDLE SCHOOL,HIGHLANDS RANCH,CO,80129,,
900,7297,REDSTONE ELEMENTARY SCHOOL,HIGHLANDS RANCH,CO,80130,,
900,7319,RENAISSANCE EXPEDITION LEARN OUTWARD BOUND SCHOOL,CASTLE ROCK,CO,80104,,
900,7435,ROCK CANYON HIGH SCHOOL,LITTLETON,CO,80124,,
900,7448,ROCKY HEIGHTS MIDDLE SCHOOL,LITTLETON,CO,80124,,
900,7562,SADDLE RANCH ELEMENTARY SCHOOL,HIGHLANDS RANCH,CO,80129,,
900,7610,SAND CREEK ELEMENTARY SCHOOL,HIGHLANDS RANCH,CO,80126,,
900,7718,SEDALIA ELEMENTARY SCHOOL,SEDALIA,CO,80135,,
900,8106,SOARING HAWK ELEMENTARY SCHOOL,CASTLE ROCK,CO,80109,,
900,8126,SOUTH RIDGE ELEMENTARY AN IB WORLD SCHOOL,CASTLE ROCK,CO,80104,,
900,8382,SUMMIT VIEW ELEMENTARY SCHOOL,HIGHLANDS RANCH,CO,80126,,
900,8847,THUNDERRIDGE HIGH SCHOOL,HIGHLANDS RANCH,CO,80129,,
900,8853,TIMBER TRAIL ELEMENTARY SCHOOL,CASTLE ROCK,CO,80108,,
900,8897,TRAILBLAZER ELEMENTARY SCHOOL,HIGHLANDS RANCH,CO,80126,,
900,9592,WILDCAT MOUNTAIN ELEMENTARY SCHOOL,LITTLETON,CO,80124,,
910,37,RED HILL ELEMENTARY SCHOOL,GYPSUM,CO,81637,,
910,38,BRUSH CREEK ELEMENTARY SCHOOL,EAGLE,CO,81631,,
910,39,GYPSUM CREEK MIDDLE SCHOOL,GYPSUM,CO,81637,,
910,205,RED CANYON HIGH SCHOOL,EDWARDS,CO,81631,,
910,471,AVON ELEMENTARY SCHOOL,AVON,CO,81620,,
910,604,BATTLE MOUNTAIN HIGH SCHOOL,EDWARDS,CO,81620,,
910,793,BERRY CREEK MIDDLE SCHOOL,EDWARDS,CO,81632,,
910,2340,EAGLE COUNTY CHARTER ACADEMY,EDWARDS,CO,81632,,
910,2346,EAGLE VALLEY ELEMENTARY SCHOOL,EAGLE,CO,81631,,
910,2350,EAGLE VALLEY HIGH SCHOOL,GYPSUM,CO,81637,,
910,2355,EAGLE VALLEY MIDDLE SCHOOL,EAGLE,CO,81631,,
910,2530,EDWARDS ELEMENTARY SCHOOL,EDWARDS,CO,81632,,
910,3710,GYPSUM ELEMENTARY SCHOOL,GYPSUM,CO,81637,,
910,4838,JUNE CREEK ELEMENTARY SCHOOL,EDWARDS,CO,81632,,
910,5742,HOMESTAKE PEAK SCHOOL,AVON,CO,81620,,
910,6238,NEW AMERICA CHARTER SCHOOL,GYPSUM,CO,81637,,
910,7285,RED TABLE EARLY LEARNING CENTER,GYPSUM,CO,81637,,
910,7296,RED SANDSTONE ELEMENTARY SCHOOL,VAIL,CO,81657,,
910,9061,VAIL SKI AND SNOWBOARD ACADEMY (USSA),EAGLE,CO,81631,,
910,9701,WORLD ACADEMY,EAGLE,CO,81631,,
920,2572,LEGACY ACADEMY,ELIZABETH,CO,80107,,
920,2604,ELIZABETH MIDDLE SCHOOL,ELIZABETH,CO,80107,,
920,2608,ELIZABETH HIGH SCHOOL,ELIZABETH,CO,80107,,
920,3236,FRONTIER HIGH SCHOOL,ELIZABETH,CO,80107,,
920,7300,ELIZABETH RUNNING CREEK PRESCHOOL,ELIZABETH,CO,80107,,
920,7517,RUNNING CREEK ELEMENTARY SCHOOL,ELIZABETH,CO,80107,,
920,7924,SINGING HILLS PRESCHOOL,PARKER,CO,80134,,
920,7925,SINGING HILLS ELEMENTARY SCHOOL,PARKER,CO,80134,,
930,4724,KIOWA ELEMENTARY SCHOOL,KIOWA,CO,80117,,
930,4726,KIOWA MIDDLE SCHOOL,KIOWA,CO,80117,,
930,4728,KIOWA HIGH SCHOOL,KIOWA,CO,80117,,
940,7914,SIMLA ELEMENTARY SCHOOL,SIMLA,CO,80835,,
940,7918,SIMLA JUNIOR HIGH SCHOOL,SIMLA,CO,80835,,
940,7922,SIMLA HIGH SCHOOL,SIMLA,CO,80835,,
950,2570,ELBERT ELEMENTARY SCHOOL,ELBERT,CO,80106,,
950,2574,ELBERT JUNIOR-SENIOR HIGH SCHOOL,ELBERT,CO,80106,,
960,44,AGATE ELEMENTARY SCHOOL,AGATE,CO,80101,,
970,1210,CALHAN ELEMENTARY SCHOOL,CALHAN,CO,80808,,
970,1215,CALHAN MIDDLE SCHOOL,CALHAN,CO,80808,,
970,1218,CALHAN HIGH SCHOOL,CALHAN,CO,80808,,
980,469,ATLAS PREPARATORY SCHOOL,COLORADO SPRINGS,CO,80916,,
980,1000,BRICKER ELEMENTARY SCHOOL,COLORADO SPRINGS,CO,80916,,
980,1306,CARMEL MIDDLE SCHOOL,COLORADO SPRINGS,CO,80910,,
980,1383,CENTENNIAL ELEMENTARY SCHOOL,COLORADO SPRINGS,CO,80910,,
980,3392,GIBERSON ELEMENTARY SCHOOL,COLORADO SPRINGS,CO,80916,,
980,3522,FOX MEADOW MIDDLE SCHOOL,COLORADO SPRINGS,CO,80906,,
980,3806,HARRISON HIGH SCHOOL,COLORADO SPRINGS,CO,80906,,
980,3870,HIGH SCHOOL PREPARATORY ACADEMY,COLORADO SPRINGS,CO,80906,,
980,4378,JAMES IRWIN CHARTER HIGH SCHOOL,COLORADO SPRINGS,CO,80916,,
980,4379,JAMES IRWIN CHARTER MIDDLE SCHOOL,COLORADO SPRINGS,CO,80916,,
980,4380,JAMES IRWIN CHARTER ELEMENTARY SCHOOL,COLORADO SPRINGS,CO,80916,,
980,6018,MONTEREY ELEMENTARY SCHOOL,COLORADO SPRINGS,CO,80910,,
980,6162,MOUNTAIN VISTA COMMUNITY SCHOOL,COLORADO SPRINGS,CO,80910,,
980,6244,NEW HORIZONS DAY SCHOOL,COLORADO SPRINGS,CO,80906,,
980,6460,OAK CREEK ELEMENTARY SCHOOL,COLORADO SPRINGS,CO,80906,,
980,6578,OTERO ELEMENTARY SCHOOL,COLORADO SPRINGS,CO,80906,,
980,6686,PANORAMA MIDDLE SCHOOL,COLORADO SPRINGS,CO,80916,,
980,6936,PIKES PEAK ELEMENTARY SCHOOL,COLORADO SPRINGS,CO,80910,,
980,7611,SAND CREEK ELEMENTARY SCHOOL,COLORADO SPRINGS,CO,80916,,
980,7882,SIERRA HIGH SCHOOL,COLORADO SPRINGS,CO,80916,,
980,8034,SOARING EAGLES ELEMENTARY SCHOOL,COLORADO SPRINGS,CO,80916,,
980,8337,STRATMOOR HILLS ELEMENTARY SCHOOL,COLORADO SPRINGS,CO,80906,,
980,8350,STRATTON MEADOWS ELEMENTARY SCHOOL,COLORADO SPRINGS,CO,80906,,
980,8923,TURMAN ELEMENTARY SCHOOL,COLORADO SPRINGS,CO,80916,,
980,9602,WILDFLOWER ELEMENTARY SCHOOL,COLORADO SPRINGS,CO,80916,,
990,3234,FRENCH ELEMENTARY SCHOOL,COLORADO SPRINGS,CO,80911,,
990,4346,TALBOTT ELEMENTARY SCHOOL,COLORADO SPRINGS,CO,80911,,
990,4394,JANITELL JUNIOR HIGH SCHOOL,FOUNTAIN,CO,80817,,
990,5033,JAMES MADISON CHARTER ACADEMY SCHOOL,COLORADO SPRINGS,CO,80911,,
990,5602,MARTIN LUTHER KING JR ELEMENTARY SCHOOL,COLORADO SPRINGS,CO,80911,,
990,5841,MESA RIDGE HIGH SCHOOL,COLORADO SPRINGS,CO,80911,,
990,6952,PINELLO ELEMENTARY SCHOOL,COLORADO SPRINGS,CO,80911,,
990,8122,VENETUCCI ELEMENTARY SCHOOL,COLORADO SPRINGS,CO,80911,,
990,8178,SPROUL JUNIOR HIGH SCHOOL,COLORADO SPRINGS,CO,80911,,
990,8392,SUNRISE ELEMENTARY SCHOOL,COLORADO SPRINGS,CO,80911,,
990,9294,WATSON JUNIOR HIGH SCHOOL,COLORADO SPRINGS,CO,80911,,
990,9334,WEBSTER ELEMENTARY SCHOOL,COLORADO SPRINGS,CO,80911,,
990,9560,DISCOVERY HIGH SCHOOL,COLORADO SPRINGS,CO,80911,,
990,9562,WIDEFIELD ELEMENTARY SCHOOL,COLORADO SPRINGS,CO,80911,,
990,9566,WIDEFIELD HIGH SCHOOL,COLORADO SPRINGS,CO,80911,,
990,9656,WIDEFIELD DISTRICT 3 PRESCHOOL,COLORADO SPRINGS,CO,80911,,
1000,203,LORRAINE SECONDARY SCHOOL,FOUNTAIN,CO,80817,,
1000,1332,CARSON MIDDLE SCHOOL,FORT CARSON,CO,80902,,
1000,1334,ABRAMS ELEMENTARY SCHOOL,FORT CARSON,CO,80902,,
1000,3027,EAGLESIDE ELEMENTARY SCHOOL,FOUNTAIN,CO,80817,,
1000,3102,ARAGON ELEMENTARY SCHOOL,FOUNTAIN,CO,80817,,
1000,3106,FOUNTAIN MIDDLE SCHOOL,FOUNTAIN,CO,80817,,
1000,3108,MESA ELEMENTARY SCHOOL,FOUNTAIN,CO,80817,,
1000,3110,FOUNTAIN-FORT CARSON HIGH SCHOOL,FOUNTAIN,CO,80817,,
1000,4474,JORDAHL ELEMENTARY SCHOOL,FOUNTAIN,CO,80817,,
1000,6138,MOUNTAINSIDE ELEMENTARY SCHOOL,FORT CARSON,CO,80902,,
1000,6338,PATRIOT ELEMENTARY SCHOOL,FORT CARSON,CO,80902,,
1000,9610,WEIKEL ELEMENTARY SCHOOL,COLORADO SPRINGS,CO,80902,,
1010,269,ACHIEVEK12,COLORADO SPRINGS,CO,80915,,
1010,452,AUDUBON ELEMENTARY SCHOOL,COLORADO SPRINGS,CO,80909,,
1010,517,ACADEMY FOR ADVANCED AND CREATIVE LEARNING,COLORADO SPRINGS,CO,80907,,
1010,594,BATES ELEMENTARY SCHOOL,COLORADO SPRINGS,CO,80907,,
1010,871,THE BIJOU SCHOOL,COLORADO SPRINGS,CO,80904,,
1010,1032,BRISTOL ELEMENTARY SCHOOL,COLORADO SPRINGS,CO,80905,,
1010,1126,BUENA VISTA ELEMENTARY SCHOOL,COLORADO SPRINGS,CO,80905,,
1010,1340,CARVER ELEMENTARY SCHOOL,COLORADO SPRINGS,CO,80917,,
1010,1613,CHIPETA ELEMENTARY SCHOOL,COLORADO SPRINGS,CO,80919,,
1010,1616,CIVA CHARTER ACADEMY,COLORADO SPRINGS,CO,80918,,
1010,1625,MCAULIFFE ELEMENTARY,COLORADO SPRINGS,CO,80915,,
1010,1798,COLUMBIA ELEMENTARY SCHOOL,COLORADO SPRINGS,CO,80903,,
1010,1870,CORONADO HIGH SCHOOL,COLORADO SPRINGS,CO,80904,,
1010,1885,COMMUNITY PREP CHARTER SCHOOL,COLORADO SPRINGS,CO,80903,,
1010,2202,DOHERTY HIGH SCHOOL,COLORADO SPRINGS,CO,80917,,
1010,2510,EDISON ELEMENTARY SCHOOL,COLORADO SPRINGS,CO,80907,,
1010,2528,NIKOLA TESLA EDUCATION OPPORTUNITY CENTER,COLORADO SPRINGS,CO,80910,,
1010,3175,FREEDOM ELEMENTARY SCHOOL,COLORADO SPRINGS,CO,80923,,
1010,3218,FREMONT ELEMENTARY SCHOOL,COLORADO SPRINGS,CO,80918,,
1010,3360,GALILEO SCHOOL OF MATH AND SCIENCE,COLORADO SPRINGS,CO,80909,,
1010,3470,GLOBE CHARTER SCHOOL,COLORADO SPRINGS,CO,80909,,
1010,3592,GRANT ELEMENTARY SCHOOL,COLORADO SPRINGS,CO,80918,,
1010,3890,HUNT ELEMENTARY SCHOOL,COLORADO SPRINGS,CO,80903,,
1010,3920,HENRY ELEMENTARY SCHOOL,COLORADO SPRINGS,CO,80915,,
1010,4070,HOLMES MIDDLE SCHOOL,COLORADO SPRINGS,CO,80904,,
1010,4090,MANN MIDDLE SCHOOL,COLORADO SPRINGS,CO,80907,,
1010,4138,HOWBERT ELEMENTARY SCHOOL,COLORADO SPRINGS,CO,80904,,
1010,4358,JACKSON ELEMENTARY SCHOOL,COLORADO SPRINGS,CO,80907,,
1010,4424,JENKINS MIDDLE SCHOOL,COLORADO SPRINGS,CO,80923,,
1010,4530,KELLER ELEMENTARY SCHOOL,COLORADO SPRINGS,CO,80918,,
1010,5146,LIFE SKILLS CENTER OF COLORADO SPRINGS,COLORADO SPRINGS,CO,80910,,
1010,5162,LINCOLN ELEMENTARY SCHOOL,COLORADO SPRINGS,CO,80907,,
1010,5404,MADISON ELEMENTARY SCHOOL,COLORADO SPRINGS,CO,80909,,
1010,5576,TWAIN ELEMENTARY SCHOOL,COLORADO SPRINGS,CO,80909,,
1010,5604,KING ELEMENTARY SCHOOL,COLORADO SPRINGS,CO,80918,,
1010,5610,MARTINEZ ELEMENTARY SCHOOL,COLORADO SPRINGS,CO,80918,,
1010,5878,MIDLAND ELEMENTARY SCHOOL,COLORADO SPRINGS,CO,80904,,
1010,5948,MITCHELL HIGH SCHOOL,COLORADO SPRINGS,CO,80909,,
1010,5988,MONROE ELEMENTARY SCHOOL,COLORADO SPRINGS,CO,80910,,
1010,6306,NORTH MIDDLE SCHOOL,COLORADO SPRINGS,CO,80903,,
1010,6680,PALMER HIGH SCHOOL,COLORADO SPRINGS,CO,80903,,
1010,6856,PENROSE ELEMENTARY SCHOOL,COLORADO SPRINGS,CO,80917,,
1010,7228,QUEEN PALMER ELEMENTARY SCHOOL,COLORADO SPRINGS,CO,80909,,
1010,7482,ROOSEVELT EDISON CHARTER SCHOOL,COLORADO SPRINGS,CO,80910,,
1010,7513,RUDY ELEMENTARY SCHOOL,COLORADO SPRINGS,CO,80917,,
1010,7523,RUSSELL MIDDLE SCHOOL,COLORADO SPRINGS,CO,80918,,
1010,7556,SABIN MIDDLE SCHOOL,COLORADO SPRINGS,CO,80917,,
1010,7705,SCOTT ELEMENTARY SCHOOL,COLORADO SPRINGS,CO,80923,,
1010,8246,STEELE ELEMENTARY SCHOOL,COLORADO SPRINGS,CO,80907,,
1010,8346,STRATTON ELEMENTARY SCHOOL,COLORADO SPRINGS,CO,80907,,
1010,8359,SPACE TECHNOLOGY AND ARTS ACADEMY (STAR ACADEMY),COLORADO SPRINGS,CO,80910,,
1010,8457,JACK SWIGERT AEROSPACE ACADEMY,COLORADO SPRINGS,CO,80909,,
1010,8466,TAYLOR ELEMENTARY SCHOOL,COLORADO SPRINGS,CO,80907,,
1010,8902,TRAILBLAZER ELEMENTARY SCHOOL,COLORADO SPRINGS,CO,80919,,
1010,9298,WASSON HIGH SCHOOL,COLORADO SPRINGS,CO,80909,,
1010,9404,WEST INTERGENERATIONAL CENTER,COLORADO SPRINGS,CO,80904,,
1010,9445,WEST ELEMENTARY SCHOOL,COLORADO SPRINGS,CO,80904,,
1010,9618,ROGERS ELEMENTARY SCHOOL,COLORADO SPRINGS,CO,80910,,
1010,9660,WILSON ELEMENTARY SCHOOL,COLORADO SPRINGS,CO,80915,,
1020,1582,CHEYENNE MOUNTAIN CHARTER ACADEMY,COLORADO SPRINGS,CO,80906,,
1020,1586,CHEYENNE MOUNTAIN ELEMENTARY SCHOOL,COLORADO SPRINGS,CO,80906,,
1020,1588,CHEYENNE MOUNTAIN JUNIOR HIGH SCHOOL,COLORADO SPRINGS,CO,80905,,
1020,1590,CHEYENNE MOUNTAIN HIGH SCHOOL,COLORADO SPRINGS,CO,80906,,
1020,1592,BROADMOOR ELEMENTARY SCHOOL,COLORADO SPRINGS,CO,80906,,
1020,1596,CANON ELEMENTARY SCHOOL,COLORADO SPRINGS,CO,80906,,
1020,1604,SKYWAY PARK ELEMENTARY SCHOOL,COLORADO SPRINGS,CO,80905,,
1020,3482,GOLD CAMP ELEMENTARY SCHOOL,COLORADO SPRINGS,CO,80906,,
1020,6953,PINON VALLEY ELEMENTARY SCHOOL,COLORADO SPRINGS,CO,80906,,
1030,5460,MANITOU SPRINGS ELEMENTARY SCHOOL,MANITOU SPRINGS,CO,80829,,
1030,5464,MANITOU SPRINGS MIDDLE SCHOOL,MANITOU SPRINGS,CO,80829,,
1030,5468,MANITOU SPRINGS HIGH SCHOOL,MANITOU SPRINGS,CO,80829,,
1030,9010,UTE PASS ELEMENTARY SCHOOL,CHIPITA PARK,CO,80809,,
1040,17,ACADEMY ENDEAVOUR ELEMENTARY SCHOOL,COLORADO SPRINGS,CO,80920,,
1040,19,ACADEMY INTERNATIONAL ELEMENTARY SCHOOL,COLORADO SPRINGS,CO,80920,,
1040,74,CHALLENGER MIDDLE SCHOOL,COLORADO SPRINGS,CO,80920,,
1040,76,AIR ACADEMY HIGH SCHOOL,USAF ACADEMY,CO,80840,,
1040,110,ACADEMY ONLINE HIGH SCHOOL,COLORADO SPRINGS,CO,80920,,
1040,209,ASPEN VALLEY HIGH SCHOOL,COLORADO SPRINGS,CO,80920,,
1040,249,ANTELOPE TRAILS ELEMENTARY SCHOOL,COLORADO SPRINGS,CO,80921,,
1040,1615,CHINOOK TRAIL ELEMENTARY SCHOOL,COLORADO SPRINGS,CO,80924,,
1040,1627,THE CLASSICAL ACADEMY CHARTER,COLORADO SPRINGS,CO,80921,,
1040,1629,THE CLASSICAL ACADEMY MIDDLE SCHOOL,COLORADO SPRINGS,CO,80921,,
1040,1630,THE CLASSICAL ACADEMY HIGH SCHOOL,COLORADO SPRINGS,CO,80921,,
1040,2195,DISCOVERY CANYON CAMPUS SCHOOL,COLORADO SPRINGS,CO,80921,,
1040,2248,DOUGLASS VALLEY ELEMENTARY SCHOOL,USAF ACADEMY,CO,80840,,
1040,2358,EAGLEVIEW MIDDLE SCHOOL,COLORADO SPRINGS,CO,80919,,
1040,2524,EDITH WOLFORD ELEMENTARY SCHOOL,COLORADO SPRINGS,CO,80908,,
1040,2800,EXPLORER ELEMENTARY SCHOOL,COLORADO SPRINGS,CO,80920,,
1040,3104,FOOTHILLS ELEMENTARY SCHOOL,COLORADO SPRINGS,CO,80919,,
1040,3238,FRONTIER ELEMENTARY SCHOOL,COLORADO SPRINGS,CO,80920,,
1040,3985,HIGH PLAINS ELEMENTARY SCHOOL,COLORADO SPRINGS,CO,80920,,
1040,5126,LIBERTY HIGH SCHOOL,COLORADO SPRINGS,CO,80920,,
1040,6140,MOUNTAIN RIDGE MIDDLE SCHOOL,COLORADO SPRINGS,CO,80920,,
1040,6158,MOUNTAIN VIEW ELEMENTARY SCHOOL,COLORADO SPRINGS,CO,80920,,
1040,6937,PINE CREEK HIGH SCHOOL,COLORADO SPRINGS,CO,80908,,
1040,6960,PIONEER ELEMENTARY SCHOOL,COLORADO SPRINGS,CO,80918,,
1040,7159,PRAIRIE HILLS ELEMENTARY SCHOOL,COLORADO SPRINGS,CO,80920,,
1040,7240,RAMPART HIGH SCHOOL,COLORADO SPRINGS,CO,80920,,
1040,7247,RANCH CREEK ELEMENTARY,COLORADO SPRINGS,CO,80924,,
1040,7460,ROCKRIMMON ELEMENTARY SCHOOL,COLORADO SPRINGS,CO,80919,,
1040,8779,TCA COLLEGE PATHWAYS,COLORADO SPRINGS,CO,80921,,
1040,8813,THE DA VINCI ACADEMY SCHOOL,COLORADO SPRINGS,CO,80921,,
1040,8851,TIMBERVIEW MIDDLE SCHOOL,COLORADO SPRINGS,CO,80920,,
1040,9714,WOODMEN-ROBERTS ELEMENTARY SCHOOL,COLORADO SPRINGS,CO,80919,,
1050,2638,ELLICOTT ELEMENTARY SCHOOL,ELLICOTT,CO,80808,,
1050,2640,ELLICOTT MIDDLE SCHOOL,ELLICOTT,CO,80808,,
1050,2642,ELLICOTT SENIOR HIGH SCHOOL,ELLICOTT,CO,80808,,
1060,6898,PEYTON ELEMENTARY SCHOOL,PEYTON,CO,80831,,
1060,6902,PEYTON JUNIOR/SENIOR HIGH SCHOOL,PEYTON,CO,80831,,
1070,3758,HANOVER JUNIOR-SENIOR HIGH SCHOOL,COLORADO SPRINGS,CO,80928,,
1070,6701,PRAIRIE HEIGHTS ELEMENTARY SCHOOL,PUEBLO,CO,81008,,
1080,3539,BEAR CREEK ELEMENTARY SCHOOL,MONUMENT,CO,80132,,
1080,4686,RAY E KILMER ELEMENTARY SCHOOL,COLORADO SPRINGS,CO,80908,,
1080,5093,MONUMENT CHARTER ACADEMY,MONUMENT,CO,80132,,
1080,5096,LEWIS-PALMER ELEMENTARY SCHOOL,MONUMENT,CO,80132,,
1080,5098,LEWIS-PALMER MIDDLE SCHOOL,MONUMENT,CO,80132,,
1080,5100,LEWIS-PALMER HIGH SCHOOL,MONUMENT,CO,80132,,
1080,6678,PALMER RIDGE HIGH SCHOOL,MONUMENT,CO,80132,,
1080,6682,PALMER LAKE ELEMENTARY SCHOOL,PALMER LAKE,CO,80133,,
1080,7165,PRAIRIE WINDS ELEMENTARY SCHOOL,MONUMENT,CO,80132,,
1110,555,BANNING LEWIS RANCH ACADEMY,COLORADO SPRINGS,CO,80927,,
1110,1618,EVANS INTERNATIONAL ELEMENTARY SCHOOL,COLORADO SPRINGS,CO,80915,,
1110,2877,FALCON VIRTUAL ACADEMY,FALCON,CO,80831,,
1110,2902,FALCON ELEMENTARY SCHOOL,FALCON,CO,80831,,
1110,2906,FALCON MIDDLE SCHOOL,PEYTON,CO,80831,,
1110,2908,FALCON HIGH SCHOOL,PEYTON,CO,80831,,
1110,4102,HORIZON MIDDLE SCHOOL,COLORADO SPRINGS,CO,80915,,
1110,4251,THE IMAGINE CLASSICAL ACADEMY AT INDIGO RANCH,COLORADO SPRINGS,CO,80923,,
1110,5779,MERIDIAN RANCH INTERNATIONAL SCHOOL,FALCON,CO,80831,,
1110,6483,ODYSSEY ELEMENTARY SCHOOL,COLORADO SPRINGS,CO,80922,,
1110,6810,PATRIOT LEARNING CENTER,FALCON,CO,80831,,
1110,6935,PIKES PEAK SCHOOL EXPEDITIONARY LEARNING,FALCON,CO,80831,,
1110,7317,REMINGTON ELEMENTARY SCHOOL,COLORADO SPRINGS,CO,80922,,
1110,7339,RIDGEVIEW ELEMENTARY SCHOOL,COLORADO SPRINGS,CO,80922,,
1110,7463,ROCKY MOUNTAIN CLASSICAL ACADEMY,COLORADO SPRINGS,CO,80915,,
1110,7613,SAND CREEK HIGH SCHOOL,COLORADO SPRINGS,CO,80922,,
1110,7960,SKYVIEW MIDDLE SCHOOL,COLORADO SPRINGS,CO,80922,,
1110,8010,SPRINGS RANCH ELEMENTARY SCHOOL,COLORADO SPRINGS,CO,80922,,
1110,8266,STETSON ELEMENTARY SCHOOL,COLORADO SPRINGS,CO,80922,,
1110,8791,VISTA RIDGE HIGH SCHOOL,COLORADO SPRINGS,CO,80922,,
1110,9706,WOODMEN HILLS ELEMENTARY SCHOOL,FALCON,CO,80831,,
1120,2504,EDISON ACADEMY,YODER,CO,80864,,
1120,2514,EDISON ELEMENTARY SCHOOL,YODER,CO,80864,,
1120,2526,EDISON JUNIOR-SENIOR HIGH SCHOOL,YODER,CO,80864,,
1130,5850,MIAMI/YODER ELEMENTARY SCHOOL,RUSH,CO,80833,,
1130,5854,MIAMI-YODER SENIOR HIGH SCHOOL,RUSH,CO,80833,,
1130,5870,MIAMI-YODER JUNIOR HIGH SCHOOL,RUSH,CO,80833,,
1140,419,CANON ONLINE ACADEMY,CANON CITY,CO,81212,,
1140,1262,CANON CITY MIDDLE SCHOOL,CANON CITY,CO,81212,,
1140,1266,CANON CITY HIGH SCHOOL,CANON CITY,CO,81212,,
1140,3211,GARDEN PARK HIGH SCHOOL,CANON CITY,CO,81212,,
1140,3802,HARRISON SCHOOL,CANON CITY,CO,81212,,
1140,5166,LINCOLN ELEMENTARY SCHOOL,CANON CITY,CO,81212,,
1140,5414,MADISON EXPLORATORY SCHOOL,CANON CITY,CO,81212,,
1140,5704,MCKINLEY ELEMENTARY SCHOOL,CANON CITY,CO,81212,,
1140,6752,MOUNT VIEW CORE KNOWLEDGE CHARTER SCHOOL,CANON CITY,CO,81212,,
1140,7950,SKYLINE ELEMENTARY SCHOOL,CANON CITY,CO,81212,,
1140,9248,WASHINGTON ELEMENTARY SCHOOL,CANON CITY,CO,81212,,
1150,2961,FOCUS ACADEMY,FLORENCE,CO,81226,,
1150,3002,FLORENCE HIGH SCHOOL,FLORENCE,CO,81226,,
1150,3224,FREMONT ELEMENTARY SCHOOL,FLORENCE,CO,81226,,
1150,3226,FREMONT MIDDLE SCHOOL,FLORENCE,CO,81226,,
1150,6858,PENROSE ELEMENTARY SCHOOL,PENROSE,CO,81240,,
1160,3220,COTOPAXI ELEMENTARY SCHOOL,COTOPAXI,CO,81223,,
1160,3228,COTOPAXI JUNIOR-SENIOR HIGH SCHOOL,COTOPAXI,CO,81223,,
1180,429,CARBONDALE COMMUNITY CHARTER SCHOOL,CARBONDALE,CO,81623,,
1180,560,BASALT ELEMENTARY SCHOOL,BASALT,CO,81621,,
1180,561,BASALT MIDDLE SCHOOL,BASALT,CO,81621,,
1180,570,BASALT HIGH SCHOOL,BASALT,CO,81621,,
1180,1006,BRIDGES,CARBONDALE,CO,81623,,
1180,1296,CARBONDALE MIDDLE SCHOOL,CARBONDALE,CO,81623,,
1180,2063,CRYSTAL RIVER ELEMENTARY SCHOOL,CARBONDALE,CO,81623,,
1180,3460,GLENWOOD SPRINGS ELEMENTARY SCHOOL,GLENWOOD SPRINGS,CO,81602,,
1180,3464,GLENWOOD SPRINGS MIDDLE SCHOOL,GLENWOOD SPRINGS,CO,81601,,
1180,3468,GLENWOOD SPRINGS HIGH SCHOOL,GLENWOOD SPRINGS,CO,81601,,
1180,7422,ROARING FORK HIGH SCHOOL,CARBONDALE,CO,81623,,
1180,8038,SOPRIS ELEMENTARY SCHOOL,GLENWOOD SPRINGS,CO,81602,,
1195,65,COAL RIDGE HIGH SCHOOL,NEW CASTLE,CO,81647,,
1195,2573,ELK CREEK ELEMENTARY,NEW CASTLE,CO,81647,,
1195,3281,GRAHAM MESA ELEMENTARY SCHOOL,RIFLE,CO,81650,,
1195,3967,HIGHLAND ELEMENTARY SCHOOL,RIFLE,CO,81650,,
1195,4510,KATHRYN SENOR ELEMENTARY SCHOOL,NEW CASTLE,CO,81647,,
1195,7356,RIFLE MIDDLE SCHOOL,RIFLE,CO,81650,,
1195,7360,RIFLE HIGH SCHOOL,RIFLE,CO,81650,,
1195,7388,RIVERSIDE SCHOOL,NEW CASTLE,CO,81647,,
1195,7890,CACTUS VALLEY ELEMENTARY SCHOOL,SILT,CO,81652,,
1195,9231,WAMSLEY ELEMENTARY SCHOOL,RIFLE,CO,81650,,
1220,3578,BEA UNDERWOOD ELEMENTARY SCHOOL,PARACHUTE,CO,81635,,
1220,3585,GRAND VALLEY CENTER FOR FAMILY LEARNING,PARACHUTE,CO,81635,,
1220,3586,GRAND VALLEY HIGH SCHOOL,PARACHUTE,CO,81635,,
1220,3603,L.W. ST. JOHN ELEMENTARY SCHOOL,PARACHUTE,CO,81635,,
1220,8274,GRAND VALLEY MIDDLE SCHOOL,PARACHUTE,CO,81635,,
1330,1632,GILPIN COUNTY ELEMENTARY SCHOOL,BLACK HAWK,CO,80403,,
1330,1634,GILPIN COUNTY UNDIVIDED HIGH SCHOOL,BLACK HAWK,CO,80403,,
1340,9416,WEST GRAND ELEMENTARY SCHOOL,KREMMLING,CO,80459,,
1340,9420,WEST GRAND HIGH SCHOOL,KREMMLING,CO,80459,,
1340,9422,WEST GRAND MIDDLE SCHOOL,KREMMLING,CO,80459,,
1350,2376,EAST GRAND MIDDLE SCHOOL,GRANBY,CO,80446,,
1350,3182,FRASER VALLEY ELEMENTARY SCHOOL,FRASER,CO,80442,,
1350,3556,GRANBY ELEMENTARY SCHOOL,GRANBY,CO,80446,,
1350,4277,INDIAN PEAKS CHARTER SCHOOL,GRANBY,CO,80446,,
1350,5864,MIDDLE PARK HIGH SCHOOL,GRANBY,CO,80446,,
1360,2006,CRESTED BUTTE COMMUNITY SCHOOL,CRESTED BUTTE,CO,81224,,
1360,3690,GUNNISON ELEMENTARY SCHOOL,GUNNISON,CO,81230,,
1360,3694,GUNNISON HIGH SCHOOL,GUNNISON,CO,81230,,
1360,3697,GUNNISON MIDDLE SCHOOL,GUNNISON,CO,81230,,
1360,5577,MARBLE CHARTER SCHOOL,MARBLE,CO,81623,,
1380,4899,LAKE CITY COMMUNITY SCHOOL,LAKE CITY,CO,81235,,
1390,63,PEAKVIEW SCHOOL,WALSENBURG,CO,81089,,
1390,3306,GARDNER ELEMENTARY SCHOOL,GARDNER,CO,81040,,
1390,9212,JOHN MALL HIGH SCHOOL,WALSENBURG,CO,81089,,
1400,4860,LA VETA ELEMENTARY SCHOOL,LA VETA,CO,81055,,
1400,4864,LA VETA JUNIOR-SENIOR HIGH SCHOOL,LA VETA,CO,81055,,
1410,6358,NORTH PARK JUNIOR-SENIOR HIGH SCHOOL,WALDEN,CO,80480,,
1410,9198,WALDEN ELEMENTARY SCHOOL,WALDEN,CO,80480,,
1420,30,ADAMS ELEMENTARY SCHOOL,WESTMINSTER,CO,80021,,
1420,33,MC LAIN HIGH SCHOOL,LAKEWOOD,CO,80228,,
1420,34,MC LAIN COMMUNITY HIGH SCHOOL,LAKEWOOD,CO,80228,,
1420,108,ALAMEDA HIGH SCHOOL,LAKEWOOD,CO,80232,,
1420,109,ARVADA K-8,ARVADA,CO,80002,,
1420,148,ALLENDALE ELEMENTARY SCHOOL,ARVADA,CO,80004,,
1420,370,ARVADA HIGH SCHOOL,ARVADA,CO,80004,,
1420,378,ARVADA WEST HIGH SCHOOL,ARVADA,CO,80004,,
1420,660,BEAR CREEK K-8 SCHOOL,LAKEWOOD,CO,80227,,
1420,664,BEAR CREEK HIGH SCHOOL,LAKEWOOD,CO,80227,,
1420,694,BELL MIDDLE SCHOOL,GOLDEN,CO,80401,,
1420,724,BELMAR ELEMENTARY SCHOOL,LAKEWOOD,CO,80226,,
1420,776,BERGEN MEADOW PRIMARY SCHOOL,EVERGREEN,CO,80439,,
1420,779,BERGEN VALLEY INTERMEDIATE SCHOOL,EVERGREEN,CO,80439,,
1420,950,BRADFORD PRIMARY SCHOOL,LITTLETON,CO,80127,,
1420,951,BLUE HERON ELEMENTARY SCHOOL,LITTLETON,CO,80123,,
1420,952,BRADFORD INTERMEDIATE SCHOOL,LITTLETON,CO,80127,,
1420,965,BRADY EXPLORATION SCHOOL,LAKEWOOD,CO,80226,,
1420,1238,CAMPBELL ELEMENTARY SCHOOL,ARVADA,CO,80004,,
1420,1318,CARMODY MIDDLE SCHOOL,LAKEWOOD,CO,80227,,
1420,1522,CHATFIELD HIGH SCHOOL,LITTLETON,CO,80127,,
1420,1730,COAL CREEK CANYON K-8 ELEMENTARY SCHOOL,GOLDEN,CO,80403,,
1420,1790,COLOROW ELEMENTARY SCHOOL,LITTLETON,CO,80123,,
1420,1861,COLUMBINE HILLS ELEMENTARY SCHOOL,LITTLETON,CO,80128,,
1420,1864,COLUMBINE HIGH SCHOOL,LITTLETON,CO,80123,,
1420,1869,COMPASS MONTESSORI - WHEAT RIDGE CHARTER SCHOOL,WHEAT RIDGE,CO,80033,,
1420,1876,CORONADO ELEMENTARY SCHOOL,LITTLETON,CO,80128,,
1420,1880,COMPASS MONTESSORI - GOLDEN CHARTER SCHOOL,GOLDEN,CO,80403,,
1420,1886,CONIFER SENIOR HIGH SCHOOL,CONIFER,CO,80433,,
1420,1976,CREIGHTON MIDDLE SCHOOL,LAKEWOOD,CO,80226,,
1420,2093,DAKOTA RIDGE SENIOR HIGH SCHOOL,LITTLETON,CO,80127,,
1420,2120,D'EVELYN JUNIOR/SENIOR HIGH SCHOOL,DENVER,CO,80235,,
1420,2130,DEER CREEK MIDDLE SCHOOL,LITTLETON,CO,80123,,
1420,2194,DEVINNY ELEMENTARY SCHOOL,LAKEWOOD,CO,80228,,
1420,2288,DRAKE JUNIOR HIGH SCHOOL,ARVADA,CO,80002,,
1420,2300,DUNSTAN MIDDLE SCHOOL,LAKEWOOD,CO,80228,,
1420,2322,DUTCH CREEK ELEMENTARY SCHOOL,LITTLETON,CO,80128,,
1420,2496,EDGEWATER ELEMENTARY SCHOOL,EDGEWATER,CO,80214,,
1420,2550,EIBER ELEMENTARY SCHOOL,LAKEWOOD,CO,80215,,
1420,2616,ELK CREEK ELEMENTARY SCHOOL,PINE,CO,80470,,
1420,2799,EXCEL ACADEMY CHARTER SCHOOL,ARVADA,CO,80005,,
1420,2820,EVERITT MIDDLE SCHOOL,WHEAT RIDGE,CO,80033,,
1420,2832,EVERGREEN MIDDLE SCHOOL,EVERGREEN,CO,80439,,
1420,2836,EVERGREEN HIGH SCHOOL,EVERGREEN,CO,80439,,
1420,2866,FAIRMOUNT ELEMENTARY SCHOOL,GOLDEN,CO,80403,,
1420,2946,FITZMORRIS ELEMENTARY SCHOOL,ARVADA,CO,80004,,
1420,2963,FALCON BLUFFS MIDDLE SCHOOL,LITTLETON,CO,80128,,
1420,3025,FOOTHILLS ELEMENTARY SCHOOL,LAKEWOOD,CO,80228,,
1420,3088,FOSTER ELEMENTARY SCHOOL,ARVADA,CO,80002,,
1420,3099,FAMILY LITERACY PRESCHOOL,LAKEWOOD,CO,80232,,
1420,3201,FREE HORIZON MONTESSORI CHARTER SCHOOL,GOLDEN,CO,80401,,
1420,3216,FREMONT ELEMENTARY SCHOOL,ARVADA,CO,80004,,
1420,3250,NORMA ANDERSON PRESCHOOL,WHEAT RIDGE,CO,80033,,
1420,3450,GLENNON HEIGHTS ELEMENTARY SCHOOL,LAKEWOOD,CO,80226,,
1420,3502,GOLDEN HIGH SCHOOL,GOLDEN,CO,80401,,
1420,3536,GOVERNOR'S RANCH ELEMENTARY SCHOOL,LITTLETON,CO,80123,,
1420,3622,GREEN GABLES ELEMENTARY SCHOOL,LAKEWOOD,CO,80227,,
1420,3624,GREEN MOUNTAIN ELEMENTARY SCHOOL,LAKEWOOD,CO,80228,,
1420,3628,GREEN MOUNTAIN HIGH SCHOOL,LAKEWOOD,CO,80228,,
1420,3726,HACKBERRY HILL ELEMENTARY SCHOOL,ARVADA,CO,80003,,
1420,4190,HUTCHINSON ELEMENTARY SCHOOL,LAKEWOOD,CO,80228,,
1420,4402,JEFFERSON ACADEMY CHARTER SCHOOL,BROOMFIELD,CO,80021,,
1420,4404,JEFFERSON CHARTER ACADEMY JUNIOR HIGH SCHOOL,BROOMFIELD,CO,80020,,
1420,4408,JEFFCO'S 21ST CENTURY VIRTUAL ACADEMY,GOLDEN,CO,80401,,
1420,4410,JEFFERSON CHARTER ACADEMY SENIOR HIGH SCHOOL,BROOMFIELD,CO,80021,,
1420,4422,JEFFERSON HIGH SCHOOL,EDGEWATER,CO,80214,,
1420,4478,SHERIDAN GREEN ELEMENTARY SCHOOL,WESTMINSTER,CO,80020,,
1420,4548,KEN CARYL MIDDLE SCHOOL,LITTLETON,CO,80123,,
1420,4549,KENDALLVUE ELEMENTARY SCHOOL,MORRISON,CO,80465,,
1420,4550,KENDRICK LAKES ELEMENTARY SCHOOL,LAKEWOOD,CO,80232,,
1420,4798,CONNECTIONS LEARNING CENTER ON THE EARLE JOHNSON CAMPUS,GOLDEN,CO,80401,,
1420,4802,KULLERSTRAND ELEMENTARY SCHOOL,WHEAT RIDGE,CO,80033,,
1420,4830,KYFFIN ELEMENTARY SCHOOL,GOLDEN,CO,80401,,
1420,4942,LAKEWOOD HIGH SCHOOL,LAKEWOOD,CO,80215,,
1420,5004,LASLEY ELEMENTARY SCHOOL,LAKEWOOD,CO,80226,,
1420,5024,LAWRENCE ELEMENTARY SCHOOL,ARVADA,CO,80002,,
1420,5036,LEAWOOD ELEMENTARY SCHOOL,LITTLETON,CO,80123,,
1420,5145,LINCOLN CHARTER ACADEMY,ARVADA,CO,80003,,
1420,5222,LITTLE ELEMENTARY SCHOOL,ARVADA,CO,80003,,
1420,5350,LUKAS ELEMENTARY SCHOOL,WESTMINSTER,CO,80021,,
1420,5354,LUMBERG ELEMENTARY SCHOOL,EDGEWATER,CO,80214,,
1420,5415,ROCKY MOUNTAIN DEAF SCHOOL,GOLDEN,CO,80401,,
1420,5454,MANDALAY MIDDLE SCHOOL,WESTMINSTER,CO,80021,,
1420,5472,MANNING OPTIONS SCHOOL,LAKEWOOD,CO,80401,,
1420,5524,MAPLE GROVE ELEMENTARY SCHOOL,GOLDEN,CO,80401,,
1420,5580,MARSHDALE ELEMENTARY SCHOOL,EVERGREEN,CO,80439,,
1420,5623,LONGVIEW HIGH SCHOOL,LAKEWOOD,CO,80228,,
1420,5758,MEIKLEJOHN ELEMENTARY,ARVADA,CO,80005,,
1420,5892,MILLER SPECIAL EDUCATION,LAKEWOOD,CO,80226,,
1420,5944,MITCHELL ELEMENTARY SCHOOL,GOLDEN,CO,80403,,
1420,5972,MOLHOLM ELEMENTARY SCHOOL,LAKEWOOD,CO,80214,,
1420,5994,MONTESSORI PEAKS CHARTER ACADEMY,LITTLETON,CO,80123,,
1420,6090,MOORE MIDDLE SCHOOL,ARVADA,CO,80005,,
1420,6133,MORTENSEN ELEMENTARY SCHOOL,LITTLETON,CO,80128,,
1420,6135,MOUNT CARBON ELEMENTARY SCHOOL,LITTLETON,CO,80127,,
1420,6139,MOUNTAIN PHOENIX COMMUNITY SCHOOL,GOLDEN,CO,80403,,
1420,6237,NEW AMERICA SCHOOL,LAKEWOOD,CO,80226,,
1420,6286,NORMANDY ELEMENTARY SCHOOL,LITTLETON,CO,80128,,
1420,6330,NORTH ARVADA MIDDLE SCHOOL,ARVADA,CO,80003,,
1420,6470,OBERON JUNIOR HIGH SCHOOL,ARVADA,CO,80005,,
1420,6474,O'CONNELL MIDDLE SCHOOL,LAKEWOOD,CO,80232,,
1420,6539,JEFFERSON COUNTY OPEN ELEMENTARY SCHOOL,LAKEWOOD,CO,80215,,
1420,6541,JEFFERSON COUNTY OPEN SECONDARY,LAKEWOOD,CO,80215,,
1420,6804,PARMALEE ELEMENTARY SCHOOL,INDIAN HILLS,CO,80454,,
1420,6806,PARR ELEMENTARY SCHOOL,ARVADA,CO,80003,,
1420,6808,PATTERSON ELEMENTARY SCHOOL,LAKEWOOD,CO,80232,,
1420,6828,PECK ELEMENTARY SCHOOL,ARVADA,CO,80004,,
1420,6844,PEIFFER ELEMENTARY SCHOOL,LITTLETON,CO,80127,,
1420,6848,PENNINGTON ELEMENTARY SCHOOL,WHEAT RIDGE,CO,80033,,
1420,7078,PLEASANT VIEW ELEMENTARY SCHOOL,GOLDEN,CO,80401,,
1420,7114,POMONA HIGH SCHOOL,ARVADA,CO,80005,,
1420,7128,POWDERHORN ELEMENTARY SCHOOL,LITTLETON,CO,80127,,
1420,7190,PROSPECT VALLEY ELEMENTARY SCHOOL,WHEAT RIDGE,CO,80033,,
1420,7238,RALSTON ELEMENTARY SCHOOL,GOLDEN,CO,80401,,
1420,7239,RALSTON VALLEY SENIOR HIGH SCHOOL,ARVADA,CO,80005,,
1420,7282,RED ROCKS ELEMENTARY SCHOOL,MORRISON,CO,80465,,
1420,7462,ROCKY MOUNTAIN ACADEMY OF EVERGREEN,EVERGREEN,CO,80439,,
1420,7483,ROONEY RANCH ELEMENTARY SCHOOL,LAKEWOOD,CO,80228,,
1420,7529,RYAN ELEMENTARY SCHOOL,WESTMINSTER,CO,80020,,
1420,7701,COLLEGIATE ACADEMY OF COLORADO,LITTLETON,CO,80127,,
1420,7708,SECREST ELEMENTARY SCHOOL,ARVADA,CO,80003,,
1420,7753,SEMPER ELEMENTARY SCHOOL,WESTMINSTER,CO,80021,,
1420,7780,SHAFFER ELEMENTARY SCHOOL,LITTLETON,CO,80127,,
1420,7833,SHELTON ELEMENTARY SCHOOL,GOLDEN,CO,80401,,
1420,7870,SIERRA ELEMENTARY SCHOOL,ARVADA,CO,80005,,
1420,7962,SLATER ELEMENTARY SCHOOL,LAKEWOOD,CO,80215,,
1420,8036,SOBESKY ACADEMY,LAKEWOOD,CO,80215,,
1420,8090,DEANE ELEMENTARY SCHOOL,LAKEWOOD,CO,80226,,
1420,8102,SOUTH LAKEWOOD ELEMENTARY SCHOOL,LAKEWOOD,CO,80226,,
1420,8209,STANDLEY LAKE HIGH SCHOOL,WESTMINSTER,CO,80021,,
1420,8223,STEVENS ELEMENTARY SCHOOL,WHEAT RIDGE,CO,80033,,
1420,8248,STEIN ELEMENTARY SCHOOL,LAKEWOOD,CO,80226,,
1420,8276,STOBER ELEMENTARY SCHOOL,LAKEWOOD,CO,80215,,
1420,8280,STONY CREEK ELEMENTARY SCHOOL,LITTLETON,CO,80128,,
1420,8300,STOTT ELEMENTARY SCHOOL,ARVADA,CO,80004,,
1420,8381,SUMMIT RIDGE MIDDLE SCHOOL,LITTLETON,CO,80127,,
1420,8432,SWANSON ELEMENTARY SCHOOL,ARVADA,CO,80003,,
1420,8458,JOHN AND KAREN LITZ PRESCHOOL,GOLDEN,CO,80401,,
1420,8793,TWO ROADS CHARTER SCHOOL,WHEAT RIDGE,CO,80033,,
1420,8834,THOMSON ELEMENTARY SCHOOL,ARVADA,CO,80003,,
1420,9008,UTE MEADOWS ELEMENTARY SCHOOL,LITTLETON,CO,80127,,
1420,9052,VAN ARSDALE ELEMENTARY SCHOOL,ARVADA,CO,80005,,
1420,9058,VANDERHOOF ELEMENTARY SCHOOL,ARVADA,CO,80004,,
1420,9154,VIVIAN ELEMENTARY SCHOOL,LAKEWOOD,CO,80215,,
1420,9232,WARDER ELEMENTARY SCHOOL,ARVADA,CO,80005,,
1420,9234,WARREN OCCUPATION TECHNICAL CENTER,LAKEWOOD,CO,80228,,
1420,9245,WARREN TECH NORTH,ARVADA,CO,80004,,
1420,9299,WAYNE CARLE MIDDLE SCHOOL,WESTMINSTER,CO,80021,,
1420,9328,WEBER ELEMENTARY SCHOOL,ARVADA,CO,80005,,
1420,9342,WELCHESTER ELEMENTARY SCHOOL,GOLDEN,CO,80401,,
1420,9412,WESTGATE ELEMENTARY SCHOOL,LAKEWOOD,CO,80227,,
1420,9424,WEST JEFFERSON ELEMENTARY SCHOOL,CONIFER,CO,80433,,
1420,9427,WOODROW WILSON CHARTER ACADEMY,WESTMINSTER,CO,80021,,
1420,9428,WEST JEFFERSON MIDDLE SCHOOL,CONIFER,CO,80433,,
1420,9429,WEST WOODS ELEMENTARY SCHOOL,ARVADA,CO,80007,,
1420,9432,DENNISON ELEMENTARY SCHOOL,LAKEWOOD,CO,80226,,
1420,9490,WESTRIDGE ELEMENTARY SCHOOL,LITTLETON,CO,80127,,
1420,9510,WHEAT RIDGE HIGH SCHOOL,WHEAT RIDGE,CO,80033,,
1420,9515,WHEAT RIDGE 5-8,WHEAT RIDGE,CO,80033,,
1420,9638,WILMORE DAVIS ELEMENTARY SCHOOL,WHEAT RIDGE,CO,80033,,
1420,9648,WILMOT ELEMENTARY SCHOOL,EVERGREEN,CO,80439,,
1420,9678,WITT ELEMENTARY SCHOOL,WESTMINSTER,CO,80021,,
1430,2328,EADS ELEMENTARY SCHOOL,EADS,CO,81036,,
1430,2332,EADS MIDDLE SCHOOL,EADS,CO,81036,,
1430,2336,EADS HIGH SCHOOL,EADS,CO,81036,,
1440,6992,PLAINVIEW ELEMENTARY SCHOOL,SHERIDAN LAKE,CO,81071,,
1440,7009,PLAINVIEW JUNIOR-SENIOR HIGH SCHOOL,SHERIDAN LAKE,CO,81071,,
1450,2956,FLAGLER ELEMENTARY SCHOOL,FLAGLER,CO,80815,,
1450,2958,FLAGLER MIDDLE SCHOOL,FLAGLER,CO,80815,,
1450,2960,FLAGLER SENIOR HIGH SCHOOL,FLAGLER,CO,80815,,
1460,7746,HI PLAINS UNDIVIDED HIGH SCHOOL,SEIBERT,CO,80834,,
1460,9164,HI PLAINS ELEMENTARY SCHOOL,VONA,CO,80861,,
1480,8342,STRATTON ELEMENTARY SCHOOL,STRATTON,CO,80836,,
1480,8351,STRATTON MIDDLE SCHOOL,STRATTON,CO,80836,,
1480,8354,STRATTON SENIOR HIGH SCHOOL,STRATTON,CO,80836,,
1490,832,BETHUNE ELEMENTARY SCHOOL,BETHUNE,CO,80805,,
1490,842,BETHUNE JUNIOR-SENIOR HIGH SCHOOL,BETHUNE,CO,80805,,
1500,1144,BURLINGTON ELEMENTARY SCHOOL,BURLINGTON,CO,80807,,
1500,1150,BURLINGTON MIDDLE SCHOOL,BURLINGTON,CO,80807,,
1500,1152,BURLINGTON HIGH SCHOOL,BURLINGTON,CO,80807,,
1510,4901,LAKE COUNTY MIDDLE SCHOOL,LEADVILLE,CO,80461,,
1510,4904,LAKE COUNTY HIGH SCHOOL,LEADVILLE,CO,80461,,
1510,8804,PITTS ELEMENTARY SCHOOL,LEADVILLE,CO,80461,,
1510,9486,WESTPARK ELEMENTARY SCHOOL,LEADVILLE,CO,80461,,
1520,225,ANIMAS VALLEY ELEMENTARY SCHOOL,DURANGO,CO,81301,,
1520,2318,DURANGO HIGH SCHOOL,DURANGO,CO,81301,,
1520,3012,FLORIDA MESA ELEMENTARY SCHOOL,DURANGO,CO,81303,,
1520,3050,FORT LEWIS MESA ELEMENTARY SCHOOL,HESPERUS,CO,81326,,
1520,5888,MILLER MIDDLE SCHOOL,DURANGO,CO,81301,,
1520,6222,NEEDHAM ELEMENTARY SCHOOL,DURANGO,CO,81301,,
1520,6738,PARK ELEMENTARY SCHOOL,DURANGO,CO,81301,,
1520,7402,RIVERVIEW ELEMENTARY SCHOOL,DURANGO,CO,81301,,
1520,7994,ESCALANTE MIDDLE SCHOOL,DURANGO,CO,81303,,
1520,8388,SUNNYSIDE ELEMENTARY SCHOOL,DURANGO,CO,81303,,
1530,632,BAYFIELD ELEMENTARY SCHOOL,BAYFIELD,CO,81122,,
1530,636,BAYFIELD MIDDLE SCHOOL,BAYFIELD,CO,81122,,
1530,640,BAYFIELD HIGH SCHOOL,BAYFIELD,CO,81122,,
1540,4250,IGNACIO ELEMENTARY SCHOOL,IGNACIO,CO,81137,,
1540,4252,IGNACIO INTERMEDIATE SCHOOL,IGNACIO,CO,81137,,
1540,4254,IGNACIO JUNIOR HIGH SCHOOL,IGNACIO,CO,81137,,
1540,4258,IGNACIO HIGH SCHOOL,IGNACIO,CO,81137,,
1550,146,RIDGEVIEW CLASSICAL CHARTER SCHOOLS,FORT COLLINS,CO,80525,,
1550,477,ZACH ELEMENTARY SCHOOL,FORT COLLINS,CO,80528,,
1550,490,BACON ELEMENTARY SCHOOL,FORT COLLINS,CO,80528,,
1550,498,BETHKE ELEMENTARY SCHOOL,TIMNATH,CO,80547,,
1550,612,BAUDER ELEMENTARY SCHOOL,FORT COLLINS,CO,80526,,
1550,678,BEATTIE ELEMENTARY SCHOOL,FORT COLLINS,CO,80526,,
1550,766,BENNETT ELEMENTARY SCHOOL,FORT COLLINS,CO,80521,,
1550,892,BLEVINS MIDDLE SCHOOL,FORT COLLINS,CO,80526,,
1550,898,BOLTZ MIDDLE SCHOOL,FORT COLLINS,CO,80525,,
1550,1186,CACHE LA POUDRE ELEMENTARY SCHOOL,LA PORTE,CO,80535,,
1550,1190,CACHE LA POUDRE MIDDLE SCHOOL,LA PORTE,CO,80535,,
1550,2298,DUNN ELEMENTARY SCHOOL,FORT COLLINS,CO,80521,,
1550,3046,FORT COLLINS HIGH SCHOOL,FORT COLLINS,CO,80525,,
1550,3105,FOSSIL RIDGE HIGH SCHOOL,FORT COLLINS,CO,80528,,
1550,3760,CENTENNIAL HIGH SCHOOL,FORT COLLINS,CO,80524,,
1550,3787,HARRIS BILINGUAL ELEMENTARY SCHOOL,FORT COLLINS,CO,80524,,
1550,3791,LAB ELEMENTARY SCHOOL FOR CREATIVE LEARNING,FORT COLLINS,CO,80521,,
1550,4282,IRISH ELEMENTARY SCHOOL,FORT COLLINS,CO,80521,,
1550,4456,JOHNSON ELEMENTARY SCHOOL,FORT COLLINS,CO,80526,,
1550,4698,KINARD CORE KNOWLEDGE MIDDLE SCHOOL,FORT COLLINS,CO,80528,,
1550,4793,KRUSE ELEMENTARY SCHOOL,FORT COLLINS,CO,80525,,
1550,5014,LAUREL ELEMENTARY SCHOOL,FORT COLLINS,CO,80524,,
1550,5068,LESHER MIDDLE SCHOOL,FORT COLLINS,CO,80524,,
1550,5120,LIBERTY COMMON CHARTER SCHOOL,FORT COLLINS,CO,80525,,
1550,5168,LINCOLN MIDDLE SCHOOL,FORT COLLINS,CO,80521,,
1550,5196,LINTON ELEMENTARY SCHOOL,FORT COLLINS,CO,80525,,
1550,5234,LIVERMORE ELEMENTARY SCHOOL,LIVERMORE,CO,80536,,
1550,5292,LOPEZ ELEMENTARY SCHOOL,FORT COLLINS,CO,80526,,
1550,5688,MCGRAW ELEMENTARY SCHOOL,FORT COLLINS,CO,80526,,
1550,6476,O'DEA ELEMENTARY SCHOOL,FORT COLLINS,CO,80525,,
1550,6482,OLANDER ELEMENTARY SCHOOL,FORT COLLINS,CO,80526,,
1550,7104,POLARIS EXPEDITIONARY LEARNING SCHOOL,FORT COLLINS,CO,80521,,
1550,7124,POUDRE HIGH SCHOOL,FORT COLLINS,CO,80521,,
1550,7127,POUDRE COMMUNITY ACADEMY,FORT COLLINS,CO,80521,,
1550,7161,PRESTON MIDDLE SCHOOL,FORT COLLINS,CO,80528,,
1550,7198,PSD GLOBAL ACADEMY,FORT COLLINS,CO,80521,,
1550,7218,PUTNAM ELEMENTARY SCHOOL,FORT COLLINS,CO,80521,,
1550,7290,RED FEATHER LAKES ELEMENTARY SCHOOL,RED FEATHER LAKES,CO,80545,,
1550,7325,RICE ELEMENTARY SCHOOL,WELLINGTON,CO,80549,,
1550,7350,RIFFENBURGH ELEMENTARY SCHOOL,FORT COLLINS,CO,80525,,
1550,7470,ROCKY MOUNTAIN HIGH SCHOOL,FORT COLLINS,CO,80526,,
1550,7834,SHEPARDSON ELEMENTARY SCHOOL,FORT COLLINS,CO,80525,,
1550,8318,STOVE PRAIRIE ELEMENTARY SCHOOL,BELLVUE,CO,80512,,
1550,8460,TAVELLI ELEMENTARY SCHOOL,FORT COLLINS,CO,80524,,
1550,8852,TIMNATH ELEMENTARY SCHOOL,TIMNATH,CO,80547,,
1550,9251,TRAUT CORE ELEMENTARY SCHOOL,FORT COLLINS,CO,80528,,
1550,9330,WEBBER MIDDLE SCHOOL,FORT COLLINS,CO,80526,,
1550,9370,EYESTONE ELEMENTARY SCHOOL,WELLINGTON,CO,80549,,
1550,9374,WELLINGTON MIDDLE SCHOOL,WELLINGTON,CO,80549,,
1550,9380,WERNER ELEMENTARY SCHOOL,FORT COLLINS,CO,80525,,
1560,510,CONRAD BALL MIDDLE SCHOOL,LOVELAND,CO,80538,,
1560,808,BERTHOUD ELEMENTARY SCHOOL,BERTHOUD,CO,80513,,
1560,812,BERTHOUD HIGH SCHOOL,BERTHOUD,CO,80513,,
1560,865,B F KITCHEN ELEMENTARY SCHOOL,LOVELAND,CO,80537,,
1560,870,BIG THOMPSON ELEMENTARY SCHOOL,LOVELAND,CO,80538,,
1560,890,MARY BLAIR ELEMENTARY SCHOOL,LOVELAND,CO,80538,,
1560,1323,CARRIE MARTIN ELEMENTARY SCHOOL,LOVELAND,CO,80537,,
1560,1385,CENTENNIAL ELEMENTARY SCHOOL,LOVELAND,CO,80538,,
1560,1920,COTTONWOOD PLAINS ELEMENTARY SCHOOL,FT COLLINS,CO,80525,,
1560,2089,COYOTE RIDGE ELEMENTARY SCHOOL,FORT COLLINS,CO,80525,,
1560,3320,GARFIELD ELEMENTARY SCHOOL,LOVELAND,CO,80537,,
1560,4332,IVY STOCKWELL ELEMENTARY SCHOOL,BERTHOUD,CO,80513,,
1560,5018,LAURENE EDMONDSON ELEMENTARY SCHOOL,LOVELAND,CO,80538,,
1560,5170,LINCOLN ELEMENTARY SCHOOL,LOVELAND,CO,80538,,
1560,5235,LOVELAND CLASSICAL SCHOOL,LOVELAND,CO,80537,,
1560,5312,BILL REED MIDDLE SCHOOL,LOVELAND,CO,80537,,
1560,5316,LOVELAND HIGH SCHOOL,LOVELAND,CO,80538,,
1560,5335,LUCILE ERWIN MIDDLE SCHOOL,LOVELAND,CO,80538,,
1560,5393,THOMPSON INTEGRATED EARLY CHILDHOOD,LOVELAND,CO,80537,,
1560,5992,MONROE ELEMENTARY SCHOOL,LOVELAND,CO,80538,,
1560,6163,MOUNTAIN VIEW HIGH SCHOOL,LOVELAND,CO,80537,,
1560,6194,NAMAQUA ELEMENTARY SCHOOL,LOVELAND,CO,80537,,
1560,6220,NEW VISION CHARTER SCHOOL,LOVELAND,CO,80538,,
1560,7113,PONDEROSA ELEMENTARY,LOVELAND,CO,80538,,
1560,7640,SARAH MILNER ELEMENTARY SCHOOL,LOVELAND,CO,80537,,
1560,7650,STANSBERRY ELEMENTARY SCHOOL,LOVELAND,CO,80538,,
1560,8824,THOMPSON VALLEY HIGH SCHOOL,LOVELAND,CO,80537,,
1560,8855,THOMPSON ONLINE,LOVELAND,CO,80538,,
1560,8918,TRUSCOTT ELEMENTARY SCHOOL,LOVELAND,CO,80537,,
1560,8925,TURNER MIDDLE SCHOOL,BERTHOUD,CO,80513,,
1560,9055,VAN BUREN ELEMENTARY SCHOOL,LOVELAND,CO,80538,,
1560,9228,WALT CLARK MIDDLE SCHOOL,LOVELAND,CO,80537,,
1560,9260,HAROLD FERGUSON HIGH SCHOOL,LOVELAND,CO,80537,,
1560,9674,WINONA ELEMENTARY SCHOOL,LOVELAND,CO,80537,,
1570,2788,ESTES PARK OPTIONS SCHOOL,ESTES PARK,CO,80157,,
1570,2790,ESTES PARK K-5 SCHOOL,ESTES PARK,CO,80517,,
1570,2792,ESTES PARK MIDDLE SCHOOL,ESTES PARK,CO,80517,,
1570,2794,ESTES PARK HIGH SCHOOL,ESTES PARK,CO,80517,,
1580,1386,TRINIDAD MIDDLE SCHOOL,TRINIDAD,CO,81082,,
1580,2481,ECKHART ELEMENTARY SCHOOL,TRINIDAD,CO,81082,,
1580,2944,FISHER'S PEAK ELEMENTARY SCHOOL,TRINIDAD,CO,81082,,
1580,8906,TRINIDAD HIGH SCHOOL,TRINIDAD,CO,81082,,
1590,7160,PRIMERO ELEMENTARY SCHOOL,WESTON,CO,81091,,
1590,7164,PRIMERO JUNIOR-SENIOR HIGH SCHOOL,WESTON,CO,81091,,
1600,4044,HOEHNE ELEMENTARY SCHOOL,TRINIDAD,CO,81082,,
1600,4045,HOEHNE JUNIOR HIGH SCHOOL,TRINIDAD,CO,81082,,
1600,4048,HOEHNE HIGH SCHOOL,TRINIDAD,CO,81082,,
1620,58,AGUILAR ELEMENTARY SCHOOL,AGUILAR,CO,81020,,
1620,66,AGUILAR JUNIOR-SENIOR HIGH SCHOOL,AGUILAR,CO,81020,,
1750,948,BRANSON SCHOOL ONLINE,BRANSON,CO,81027,,
1750,974,BRANSON ELEMENTARY SCHOOL,BRANSON,CO,81027,,
1750,978,BRANSON UNDIVIDED HIGH SCHOOL,BRANSON,CO,81027,,
1760,4690,KIM ELEMENTARY SCHOOL,KIM,CO,81049,,
1760,4694,KIM UNDIVIDED HIGH SCHOOL,KIM,CO,81049,,
1780,4158,GENOA-HUGO ELEMENTARY SCHOOL,HUGO,CO,80821,,
1780,4160,GENOA-HUGO MIDDLE SCHOOL,HUGO,CO,80821,,
1780,4162,GENOA-HUGO SENIOR HIGH SCHOOL,HUGO,CO,80821,,
1790,5132,LIMON ELEMENTARY SCHOOL,LIMON,CO,80828,,
1790,5136,LIMON JUNIOR-SENIOR HIGH SCHOOL,LIMON,CO,80828,,
1810,4502,KARVAL ELEMENTARY SCHOOL,KARVAL,CO,80823,,
1810,4504,KARVAL ONLINE EDUCATION,KARVAL,CO,80823,,
1810,4506,KARVAL JUNIOR-SENIOR HIGH SCHOOL,KARVAL,CO,80823,,
1828,202,SMITH HIGH SCHOOL,STERLING,CO,80751,,
1828,515,AYRES ELEMENTARY SCHOOL,STERLING,CO,80751,,
1828,1220,CALICHE ELEMENTARY SCHOOL,ILIFF,CO,80736,,
1828,1224,CALICHE JUNIOR-SENIOR HIGH SCHOOL,ILIFF,CO,80736,,
1828,1321,CAMPBELL ELEMENTARY SCHOOL,STERLING,CO,80751,,
1828,3729,HAGEN EARLY EDUCATION CENTER,STERLING,CO,80751,,
1828,8256,STERLING MIDDLE SCHOOL,STERLING,CO,80751,,
1828,8260,STERLING HIGH SCHOOL,STERLING,CO,80751,,
1850,2980,FLEMING ELEMENTARY SCHOOL,FLEMING,CO,80728,,
1850,2988,FLEMING HIGH SCHOOL,FLEMING,CO,80728,,
1860,5802,MERINO ELEMENTARY SCHOOL,MERINO,CO,80741,,
1860,5806,MERINO JUNIOR SENIOR HIGH SCHOOL,MERINO,CO,80741,,
1870,6834,PEETZ ELEMENTARY SCHOOL,PEETZ,CO,80747,,
1870,6838,PEETZ JUNIOR-SENIOR HIGH SCHOOL,PEETZ,CO,80747,,
1980,2122,DE BEQUE ELEMENTARY SCHOOL,DE BEQUE,CO,81630,,
1980,2126,DE BEQUE UNDIVIDED HIGH SCHOOL,DE BEQUE,CO,81630,,
1990,3582,GRAND MESA HIGH SCHOOL,COLLBRAN,CO,81624,,
1990,7024,PLATEAU VALLEY ELEMENTARY SCHOOL,COLLBRAN,CO,81624,,
1990,7028,PLATEAU VALLEY MIDDLE SCHOOL,COLLBRAN,CO,81624,,
1990,7032,PLATEAU VALLEY HIGH SCHOOL,COLLBRAN,CO,81624,,
2000,262,APPLETON ELEMENTARY SCHOOL,GRAND JUNCTION,CO,81505,,
2000,361,FRUITA 8/9 SCHOOL,FRUITA,CO,81521,,
2000,362,RIM ROCK ELEMENTARY SCHOOL,FRUITA,CO,81521,,
2000,363,PEAR PARK ELEMENTARY SCHOOL,GRAND JUNCTION,CO,81504,,
2000,900,BOOKCLIFF MIDDLE SCHOOL,GRAND JUNCTION,CO,81504,,
2000,1046,BROADWAY ELEMENTARY SCHOOL,GRAND JUNCTION,CO,81503,,
2000,1450,CENTRAL HIGH SCHOOL,GRAND JUNCTION,CO,81504,,
2000,1520,CHATFIELD ELEMENTARY SCHOOL,GRAND JUNCTION,CO,81504,,
2000,1619,CHIPETA ELEMENTARY SCHOOL,GRAND JUNCTION,CO,81501,,
2000,1686,CLIFTON ELEMENTARY SCHOOL,CLIFTON,CO,81520,,
2000,2128,INDEPENDENCE ACADEMY,GRAND JUNCTION,CO,81501,,
2000,2224,DOS RIOS ELEMENTARY SCHOOL,GRAND JUNCTION,CO,81503,,
2000,2297,DUAL IMMERSION ACADEMY SCHOOL,GRAND JUNCTION,CO,81501,,
2000,2392,EAST MIDDLE SCHOOL,GRAND JUNCTION,CO,81501,,
2000,2724,NEW EMERSON SCHOOL AT COLUMBUS,GRAND JUNCTION,CO,81503,,
2000,3244,FRUITA MIDDLE SCHOOL,FRUITA,CO,81521,,
2000,3262,FRUITVALE ELEMENTARY SCHOOL,GRAND JUNCTION,CO,81504,,
2000,3350,GATEWAY SCHOOL,GATEWAY,CO,81522,,
2000,3469,GLADE PARK COMMUNITY SCHOOL,GLADE PARK,CO,81523,,
2000,3570,GRAND JUNCTION HIGH SCHOOL,GRAND JUNCTION,CO,81501,,
2000,3584,GRAND MESA MIDDLE SCHOOL,GRAND JUNCTION,CO,81504,,
2000,3604,GRANDE RIVER VIRTUAL ACADEMY,GRAND JUNCTION,CO,81501,,
2000,4084,LINCOLN PARK PRESCHOOL,GRAND JUNCTION,CO,81501,,
2000,5210,LINCOLN ORCHARD MESA ELEMENTARY SCHOOL,GRAND JUNCTION,CO,81503,,
2000,5244,LOMA ELEMENTARY SCHOOL,LOMA,CO,81524,,
2000,5828,MESA VALLEY VISION HOME AND COMMUNITY PROGRAM,GRAND JUNCTION,CO,81501,,
2000,5842,MESA VIEW ELEMENTARY SCHOOL,GRAND JUNCTION,CO,81503,,
2000,6055,CAREER CENTER PRESCHOOL,GRAND JUNCTION,CO,81504,,
2000,6070,FRUITA MONUMENT HIGH SCHOOL,FRUITA,CO,81521,,
2000,6166,MOUNT GARFIELD MIDDLE SCHOOL,CLIFTON,CO,81520,,
2000,6264,NISLEY ELEMENTARY SCHOOL,GRAND JUNCTION,CO,81501,,
2000,6554,ORCHARD AVENUE ELEMENTARY SCHOOL,GRAND JUNCTION,CO,81501,,
2000,6562,ORCHARD MESA MIDDLE SCHOOL,GRAND JUNCTION,CO,81503,,
2000,6666,PALISADE HIGH SCHOOL,PALISADE,CO,81526,,
2000,7110,POMONA ELEMENTARY SCHOOL,GRAND JUNCTION,CO,81505,,
2000,7236,R-5 HIGH SCHOOL,GRAND JUNCTION,CO,81501,,
2000,7281,REDLANDS MIDDLE SCHOOL,GRAND JUNCTION,CO,81503,,
2000,7467,ROCKY MOUNTAIN ELEMENTARY SCHOOL,CLIFTON,CO,81520,,
2000,7832,SHELLEDY ELEMENTARY SCHOOL,FRUITA,CO,81521,,
2000,8462,TAYLOR ELEMENTARY SCHOOL,PALISADE,CO,81526,,
2000,8846,THUNDER MOUNTAIN ELEMENTARY SCHOOL,GRAND JUNCTION,CO,81504,,
2000,8876,TOPE ELEMENTARY SCHOOL,GRAND JUNCTION,CO,81501,,
2000,9406,WEST MIDDLE SCHOOL,GRAND JUNCTION,CO,81505,,
2000,9434,SCENIC ELEMENTARY SCHOOL,GRAND JUNCTION,CO,81503,,
2000,9673,WINGATE ELEMENTARY SCHOOL,GRAND JUNCTION,CO,81503,,
2010,1962,LAMB ELEMENTARY SCHOOL,CREEDE,CO,81130,,
2010,1966,CREEDE MIDDLE/HIGH SCHOOL,CREEDE,CO,81130,,
2020,1936,SANDROCK ELEMENTARY,CRAIG,CO,81625,,
2020,1938,CRAIG MIDDLE SCHOOL,CRAIG,CO,81625,,
2020,2373,EARLY CHILDHOOD CENTER,CRAIG,CO,81625,,
2020,2374,EAST ELEMENTARY SCHOOL,CRAIG,CO,81625,,
2020,5656,MAYBELL ELEMENTARY SCHOOL,MAYBELL,CO,81640,,
2020,5962,MOFFAT COUNTY HIGH SCHOOL,CRAIG,CO,81625,,
2020,7338,RIDGEVIEW ELEMENTARY SCHOOL,CRAIG,CO,81625,,
2020,8398,SUNSET ELEMENTARY SCHOOL,CRAIG,CO,81625,,
2035,609,BATTLE ROCK CHARTER SCHOOL,CORTEZ,CO,81321,,
2035,1888,CORTEZ MIDDLE SCHOOL,CORTEZ,CO,81321,,
2035,4546,KEMPER ELEMENTARY SCHOOL,CORTEZ,CO,81321,,
2035,5090,LEWIS-ARRIOLA ELEMENTARY SCHOOL,CORTEZ,CO,81321,,
2035,5436,MANAUGH ELEMENTARY SCHOOL,CORTEZ,CO,81321,,
2035,5836,MESA ELEMENTARY SCHOOL,CORTEZ,CO,81321,,
2035,6026,MONTEZUMA-CORTEZ HIGH SCHOOL,CORTEZ,CO,81321,,
2035,7082,PLEASANT VIEW ELEMENTARY SCHOOL,PLEASANT VIEW,CO,81331,,
2035,7430,PRESCHOOL/JUMPSTART,CORTEZ,CO,81321,,
2035,8133,SOUTHWEST OPEN CHARTER SCHOOL,CORTEZ,CO,81321,,
2055,2204,DOLORES ELEMENTARY SCHOOL,DOLORES,CO,81323,,
2055,2206,DOLORES MIDDLE SCHOOL,DOLORES,CO,81323,,
2055,2208,DOLORES HIGH SCHOOL,DOLORES,CO,81323,,
2055,8500,TEDDY BEAR PRESCHOOL,DOLORES,CO,81323,,
2070,5446,MANCOS ELEMENTARY SCHOOL,MANCOS,CO,81328,,
2070,5450,MANCOS MIDDLE SCHOOL,MANCOS,CO,81328,,
2070,5452,MANCOS HIGH SCHOOL,MANCOS,CO,81328,,
2180,1392,CENTENNIAL MIDDLE SCHOOL,MONTROSE,CO,81401,,
2180,1915,COTTONWOOD ELEMENTARY SCHOOL,MONTROSE,CO,81401,,
2180,2942,EARLY CHILDHOOD CENTER,MONTROSE,CO,81403,,
2180,4458,JOHNSON ELEMENTARY SCHOOL,MONTROSE,CO,81401,,
2180,6054,COLUMBINE MIDDLE SCHOOL,MONTROSE,CO,81401,,
2180,6058,MONTROSE HIGH SCHOOL,MONTROSE,CO,81401,,
2180,6262,PEAK VIRTUAL ACADEMY,MONTROSE,CO,81401,,
2180,6366,NORTHSIDE ELEMENTARY SCHOOL,MONTROSE,CO,81401,,
2180,6466,OAK GROVE ELEMENTARY SCHOOL,MONTROSE,CO,81401,,
2180,6486,OLATHE ELEMENTARY SCHOOL,OLATHE,CO,81425,,
2180,6490,OLATHE MIDDLE SCHOOL,OLATHE,CO,81425,,
2180,6494,OLATHE HIGH SCHOOL,OLATHE,CO,81425,,
2180,6807,PASSAGE CHARTER SCHOOL,MONTROSE,CO,81401,,
2180,7106,POMONA ELEMENTARY SCHOOL,MONTROSE,CO,81401,,
2180,9149,VISTA CHARTER SCHOOL,MONTROSE,CO,81401,,
2190,6196,NATURITA ELEMENTARY & MIDDLE SCHOOL,NATURITA,CO,81422,,
2190,6436,NUCLA HIGH SCHOOL,NUCLA,CO,81424,,
2190,6718,PARADOX VALLEY CHARTER SCHOOL,PARADOX,CO,81429,,
2395,1094,BRUSH MIDDLE SCHOOL,BRUSH,CO,80723,,
2395,1096,BRUSH HIGH SCHOOL,BRUSH,CO,80723,,
2395,1438,BEAVER VALLEY ELEMENTARY SCHOOL,BRUSH,CO,80723,,
2395,8832,THOMSON PRIMARY SCHOOL,BRUSH,CO,80723,,
2405,492,BAKER CENTRAL SCHOOL,FORT MORGAN,CO,80701,,
2405,1850,COLUMBINE ELEMENTARY SCHOOL,FORT MORGAN,CO,80701,,
2405,3074,FORT MORGAN MIDDLE SCHOOL,FORT MORGAN,CO,80701,,
2405,3078,FORT MORGAN HIGH SCHOOL,FORT MORGAN,CO,80701,,
2405,3620,GREEN ACRES ELEMENTARY SCHOOL,FORT MORGAN,CO,80701,,
2405,5180,LINCOLN HIGH SCHOOL,FORT MORGAN,CO,80701,,
2405,6954,PIONEER ELEMENTARY SCHOOL,FORT MORGAN,CO,80701,,
2405,7856,SHERMAN EARLY CHILDHOOD CENTER,FORT MORGAN,CO,80701,,
2505,9352,WELDON VALLEY ELEMENTARY SCHOOL,WELDONA,CO,80653,,
2505,9356,WELDON VALLEY JUNIOR HIGH SCHOOL,WELDONA,CO,80653,,
2505,9360,WELDON VALLEY HIGH SCHOOL,WELDONA,CO,80653,,
2515,9263,WIGGINS MIDDLE SCHOOL,WIGGINS,CO,80654,,
2515,9576,WIGGINS ELEMENTARY SCHOOL,WIGGINS,CO,80654,,
2515,9582,WIGGINS HIGH SCHOOL,WIGGINS,CO,80654,,
2520,4841,LA JUNTA INTERMEDIATE SCHOOL,LA JUNTA,CO,81050,,
2520,4843,LA JUNTA PRIMARY SCHOOL,LA JUNTA,CO,81050,,
2520,5015,LA JUNTA JR/SR HIGH SCHOOL,LA JUNTA,CO,81050,,
2530,5114,JEFFERSON INTERMEDIATE SCHOOL,ROCKY FORD,CO,81067,,
2530,7442,ROCKY FORD JUNIOR/SENIOR HIGH SCHOOL,ROCKY FORD,CO,81067,,
2530,9264,WASHINGTON PRIMARY SCHOOL,ROCKY FORD,CO,81067,,
2535,5498,MANZANOLA ELEMENTARY SCHOOL,MANZANOLA,CO,81058,,
2535,5506,MANZANOLA JUNIOR-SENIOR HIGH SCHOOL,MANZANOLA,CO,81058,,
2540,56,FOWLER ELEMENTARY SCHOOL,FOWLER,CO,80139,,
2540,3130,FOWLER JUNIOR HIGH SCHOOL,FOWLER,CO,81039,,
2540,3134,FOWLER HIGH SCHOOL,FOWLER,CO,81039,,
2560,1538,CHERAW ELEMENTARY SCHOOL,CHERAW,CO,81030,,
2560,1546,CHERAW HIGH SCHOOL,CHERAW,CO,81030,,
2560,1548,CHERAW MIDDLE SCHOOL,CHERAW,CO,81030,,
2570,8452,SWINK ELEMENTARY SCHOOL,SWINK,CO,81077,,
2570,8456,SWINK JUNIOR-SENIOR HIGH SCHOOL,SWINK,CO,81077,,
2580,6596,OURAY ELEMENTARY SCHOOL,OURAY,CO,81427,,
2580,6598,OURAY MIDDLE SCHOOL,OURAY,CO,81427,,
2580,6600,OURAY SENIOR HIGH SCHOOL,OURAY,CO,81427,,
2590,7342,RIDGWAY ELEMENTARY SCHOOL,RIDGWAY,CO,81432,,
2590,7344,RIDGWAY MIDDLE SCHOOL,RIDGWAY,CO,81432,,
2590,7346,RIDGWAY HIGH SCHOOL,RIDGWAY,CO,81432,,
2600,7042,DEER CREEK ELEMENTARY SCHOOL,BAILEY,CO,80421,,
2600,7046,PLATTE CANYON HIGH SCHOOL,BAILEY,CO,80421,,
2600,7048,FITZSIMMONS MIDDLE SCHOOL,BAILEY,CO,80421,,
2610,3681,GUFFEY CHARTER SCHOOL,GUFFEY,CO,80820,,
2610,4908,LAKE GEORGE CHARTER SCHOOL,LAKE GEORGE,CO,80827,,
2610,7891,SILVERHEELS MIDDLE SCHOOL,FAIRPLAY,CO,80440,,
2610,8114,EDITH TETER ELEMENTARY SCHOOL,FAIRPLAY,CO,80440,,
2610,8118,SOUTH PARK HIGH SCHOOL,FAIRPLAY,CO,80440,,
2620,4076,HOLYOKE ELEMENTARY SCHOOL,HOLYOKE,CO,80734,,
2620,4080,HOLYOKE SENIOR HIGH SCHOOL,HOLYOKE,CO,80734,,
2630,3846,HAXTUN ELEMENTARY SCHOOL,HAXTUN,CO,80731,,
2630,3850,HAXTUN HIGH SCHOOL,HAXTUN,CO,80731,,
2640,42,ASPEN COMMUNITY CHARTER SCHOOL,WOODY CREEK,CO,81656,,
2640,428,ASPEN ELEMENTARY SCHOOL,ASPEN,CO,81611,,
2640,430,ASPEN MIDDLE SCHOOL,ASPEN,CO,81611,,
2640,432,ASPEN HIGH SCHOOL,ASPEN,CO,81611,,
2640,447,ASPEN PRE-SCHOOL,ASPEN,CO,81611,,
2650,3542,GRANADA ELEMENTARY SCHOOL,GRANADA,CO,81041,,
2650,3546,GRANADA UNDIVIDED HIGH SCHOOL,GRANADA,CO,81041,,
2660,200,ALTA VISTA CHARTER SCHOOL,LAMAR,CO,81052,,
2660,4956,LAMAR MIDDLE SCHOOL,LAMAR,CO,81052,,
2660,4960,LAMAR HIGH SCHOOL,LAMAR,CO,81052,,
2660,5777,MELVIN HENDRICKSON DEVELOPMENT CENTER,LAMAR,CO,81052,,
2660,6794,PARKVIEW ELEMENTARY SCHOOL,LAMAR,CO,81052,,
2660,9268,WASHINGTON ELEMENTARY SCHOOL,LAMAR,CO,81052,,
2670,4058,HOLLY HIGH SCHOOL,HOLLY,CO,81047,,
2670,4069,HOLLY JUNIOR HIGH SCHOOL,HOLLY,CO,81047,,
2670,7794,SHANNER ELEMENTARY SCHOOL,HOLLY,CO,81047,,
2680,9604,WILEY ELEMENTARY SCHOOL,WILEY,CO,81092,,
2680,9608,WILEY JUNIOR-SENIOR HIGH SCHOOL,WILEY,CO,81092,,
2690,738,BELMONT ELEMENTARY SCHOOL,PUEBLO,CO,81001,,
2690,756,BENJAMIN FRANKLIN ELEMENTARY SCHOOL,PUEBLO,CO,81001,,
2690,822,BESSEMER ELEMENTARY SCHOOL,PUEBLO,CO,81004,,
2690,860,BEULAH HEIGHTS ELEMENTARY SCHOOL,PUEBLO,CO,81005,,
2690,954,BRADFORD ELEMENTARY SCHOOL,PUEBLO,CO,81001,,
2690,1304,CARLILE ELEMENTARY SCHOOL,PUEBLO,CO,81004,,
2690,1402,CENTENNIAL HIGH SCHOOL,PUEBLO,CO,81008,,
2690,1454,CENTRAL HIGH SCHOOL,PUEBLO,CO,81004,,
2690,1488,CESAR CHAVEZ ACADEMY,PUEBLO,CO,81003,,
2690,1504,GOODNIGHT ELEMENTARY SCHOOL,PUEBLO,CO,81005,,
2690,1828,COLUMBIAN ELEMENTARY SCHOOL,PUEBLO,CO,81004,,
2690,2096,CORWIN INTERNATIONAL MAGNET SCHOOL,PUEBLO,CO,81004,,
2690,2217,DOLORES HUERTA PREPARATORY HIGH SCHOOL,PUEBLO,CO,81003,,
2690,2394,EAST HIGH SCHOOL,PUEBLO,CO,81001,,
2690,2438,EVA R BACA ELEMENTARY SCHOOL,PUEBLO,CO,81001,,
2690,2620,FOUNTAIN INTERNATIONAL MAGNET SCHOOL,PUEBLO,CO,81001,,
2690,3206,FREED MIDDLE SCHOOL,PUEBLO,CO,81003,,
2690,3724,HAAFF ELEMENTARY SCHOOL,PUEBLO,CO,81001,,
2690,3924,HERITAGE ELEMENTARY SCHOOL,PUEBLO,CO,81004,,
2690,3976,HIGHLAND PARK ELEMENTARY SCHOOL,PUEBLO,CO,81005,,
2690,4302,IRVING ELEMENTARY SCHOOL,PUEBLO,CO,81003,,
2690,4376,JAMES H RISLEY MIDDLE SCHOOL,PUEBLO,CO,81001,,
2690,5048,LEMUEL PITTS MIDDLE SCHOOL,PUEBLO,CO,81005,,
2690,5916,MINNEQUA ELEMENTARY SCHOOL,PUEBLO,CO,81004,,
2690,6132,MORTON ELEMENTARY SCHOOL,PUEBLO,CO,81003,,
2690,6399,NORTHMOOR PRESCHOOL,PUEBLO,CO,81008,,
2690,6504,OLGA A HELLBECK ELEMENTARY SCHOOL,PUEBLO,CO,81005,,
2690,6770,PARK VIEW ELEMENTARY SCHOOL,PUEBLO,CO,81001,,
2690,7209,PUEBLO CHARTER SCHOOL FOR THE ARTS & SCIENCES,PUEBLO,CO,81004,,
2690,7481,RONCALLI MIDDLE SCHOOL,PUEBLO,CO,81005,,
2690,8030,SOMERLID ELEMENTARY SCHOOL,PUEBLO,CO,81003,,
2690,8082,SOUTH HIGH SCHOOL,PUEBLO,CO,81005,,
2690,8116,SOUTH PARK ELEMENTARY SCHOOL,PUEBLO,CO,81005,,
2690,8143,SPANN ELEMENTARY SCHOOL,PUEBLO,CO,81001,,
2690,8402,SUNSET PARK ELEMENTARY SCHOOL,PUEBLO,CO,81005,,
2690,9188,W H HEATON MIDDLE SCHOOL,PUEBLO,CO,81001,,
2700,25,SKY VIEW MIDDLE SCHOOL,PUEBLO WEST,CO,81007,,
2700,26,DESERT SAGE ELEMENTARY SCHOOL,PUEBLO WEST,CO,81007,,
2700,472,AVONDALE ELEMENTARY SCHOOL,AVONDALE,CO,81022,,
2700,852,BEULAH ELEMENTARY SCHOOL,BEULAH,CO,81023,,
2700,856,BEULAH MIDDLE SCHOOL,BEULAH,CO,81023,,
2700,1377,CEDAR RIDGE ELEMENTARY SCHOOL,PUEBLO WEST,CO,81007,,
2700,3279,FUTURES ACADEMY,PUEBLO,CO,81001,,
2700,5990,70 ONLINE,PUEBLO,CO,81006,,
2700,6354,NORTH MESA ELEMENTARY SCHOOL,PUEBLO,CO,81006,,
2700,7086,PLEASANT VIEW MIDDLE SCHOOL,PUEBLO,CO,81006,,
2700,7153,PRAIRIE WINDS ELEMENTARY SCHOOL,PUEBLO WEST,CO,81007,,
2700,7208,PUEBLO COUNTY HIGH SCHOOL,PUEBLO,CO,81006,,
2700,7210,PUEBLO WEST ELEMENTARY SCHOOL,PUEBLO WEST,CO,81007,,
2700,7212,PUEBLO WEST MIDDLE SCHOOL,PUEBLO WEST,CO,81007,,
2700,7214,PUEBLO WEST HIGH SCHOOL,PUEBLO WEST,CO,81007,,
2700,7530,RYE ELEMENTARY SCHOOL,RYE,CO,81069,,
2700,7532,CRAVER MIDDLE SCHOOL,COLORADO CITY,CO,81019,,
2700,7534,RYE HIGH SCHOOL,RYE,CO,81069,,
2700,7879,SOUTHERN COLORADO EARLY COLLEGE,PUEBLO WEST,CO,81007,,
2700,7886,SIERRA VISTA ELEMENTARY SCHOOL,PUEBLO WEST,CO,81007,,
2700,8110,SOUTH MESA ELEMENTARY SCHOOL,PUEBLO,CO,81006,,
2700,8420,SWALLOWS CHARTER ACADEMY,PUEBLO WEST,CO,81007,,
2700,8810,THE CONNECT CHARTER SCHOOL,PUEBLO,CO,81003,,
2700,9130,VINELAND ELEMENTARY SCHOOL,PUEBLO,CO,81006,,
2700,9134,VINELAND MIDDLE SCHOOL,PUEBLO,CO,81006,,
2710,5750,MEEKER ELEMENTARY SCHOOL,MEEKER,CO,81641,,
2710,5754,BARONE MIDDLE SCHOOL,MEEKER,CO,81641,,
2710,5762,MEEKER HIGH SCHOOL,MEEKER,CO,81641,,
2720,7268,PARKVIEW ELEMENTARY SCHOOL,RANGELY,CO,81648,,
2720,7276,RANGELY JUNIOR/SENIOR HIGH SCHOOL,RANGELY,CO,81648,,
2730,2148,DEL NORTE MIDDLE SCHOOL,DEL NORTE,CO,81132,,
2730,2150,DEL NORTE HIGH SCHOOL,DEL NORTE,CO,81132,,
2730,5840,MESA ELEMENTARY SCHOOL,DEL NORTE,CO,81132,,
2730,8960,UNDERWOOD ELEMENTARY SCHOOL,DEL NORTE,CO,81132,,
2740,5579,MARSH ELEMENTARY SCHOOL,MONTE VISTA,CO,81144,,
2740,6030,BYRON SYRING DELTA CENTER,MONTE VISTA,CO,81144,,
2740,6036,BILL METZ ELEMENTARY SCHOOL,MONTE VISTA,CO,81144,,
2740,6044,MONTE VISTA MIDDLE SCHOOL,MONTE VISTA,CO,81144,,
2740,6046,MONTE VISTA SENIOR HIGH SCHOOL,MONTE VISTA,CO,81144,,
2740,6520,MONTE VISTA ON-LINE ACADEMY,MONTE VISTA,CO,81144,,
2750,7660,SARGENT ELEMENTARY SCHOOL,MONTE VISTA,CO,81144,,
2750,7664,SARGENT SENIOR HIGH SCHOOL,MONTE VISTA,CO,81144,,
2750,7668,SARGENT JUNIOR HIGH SCHOOL,MONTE VISTA,CO,81144,,
2760,2522,HAYDEN VALLEY ELEMENTARY SCHOOL,HAYDEN,CO,81639,,
2760,3860,HAYDEN MIDDLE SCHOOL,HAYDEN,CO,81639,,
2760,3862,HAYDEN HIGH SCHOOL,HAYDEN,CO,81639,,
2770,6363,NORTH ROUTT CHARTER SCHOOL,CLARK,CO,80428,,
2770,8208,SODA CREEK ELEMENTARY SCHOOL,STEAMBOAT SPRINGS,CO,80487,,
2770,8210,STEAMBOAT SPRINGS MIDDLE SCHOOL,STEAMBOAT SPRINGS,CO,80487,,
2770,8212,STEAMBOAT SPRINGS HIGH SCHOOL,STEAMBOAT SPRINGS,CO,80487,,
2770,8358,STRAWBERRY PARK ELEMENTARY SCHOOL,STEAMBOAT SPRINGS,CO,80487,,
2770,9757,YAMPA VALLEY SCHOOL,STEAMBOAT SPRINGS,CO,80487,,
2780,8048,SOROCO MIDDLE SCHOOL,OAK CREEK,CO,80467,,
2780,8050,SOROCO HIGH SCHOOL,OAK CREEK,CO,80467,,
2780,8119,SOUTH ROUTT EARLY LEARNING CENTER,YAMPA,CO,80483,,
2780,8120,SOUTH ROUTT ELEMENTARY SCHOOL,YAMPA,CO,80483,,
2790,6142,MOUNTAIN VALLEY ELEMENTARY SCHOOL,SAGUACHE,CO,81149,,
2790,6144,MOUNTAIN VALLEY MIDDLE SCHOOL,SAGUACHE,CO,81149,,
2790,6146,MOUNTAIN VALLEY SENIOR HIGH SCHOOL,SAGUACHE,CO,81149,,
2800,2018,CRESTONE CHARTER SCHOOL,CRESTONE,CO,81131,,
2800,5954,MOFFAT ELEMENTARY SCHOOL,MOFFAT,CO,81143,,
2800,5956,MOFFAT MIDDLE SCHOOL,MOFFAT,CO,81143,,
2800,5958,MOFFAT SENIOR HIGH SCHOOL,MOFFAT,CO,81143,,
2810,51,THE ACADEMIC RECOVERY CENTER OF SAN LUIS VALLEY,CENTER,CO,81125,,
2810,1368,CENTER VIRTUAL ACADEMY,CENTER,CO,81125,,
2810,1412,HASKIN ELEMENTARY SCHOOL,CENTER,CO,81125,,
2810,1416,SKOGLUND MIDDLE SCHOOL,CENTER,CO,81125,,
2810,1420,CENTER HIGH SCHOOL,CENTER,CO,81125,,
2820,7900,SILVERTON ELEMENTARY SCHOOL,SILVERTON,CO,81433,,
2820,7902,SILVERTON MIDDLE SCHOOL,SILVERTON,CO,81433,,
2820,7904,SILVERTON HIGH SCHOOL,SILVERTON,CO,81433,,
2830,8786,TELLURIDE ELEMENTARY SCHOOL,TELLURIDE,CO,81435,,
2830,8790,TELLURIDE MIDDLE SCHOOL,TELLURIDE,CO,81435,,
2830,8794,TELLURIDE HIGH SCHOOL,TELLURIDE,CO,81435,,
2840,6418,NORWOOD ELEMENTARY SCHOOL,NORWOOD,CO,81423,,
2840,6422,NORWOOD HIGH SCHOOL,NORWOOD,CO,81423,,
2862,4369,INSIGHT SCHOOL OF COLORADO AT JULESBURG,JULESBURG,CO,80737,,
2862,4488,JULESBURG ELEMENTARY SCHOOL,JULESBURG,CO,80737,,
2862,4492,JULESBURG HIGH SCHOOL,JULESBURG,CO,80737,,
2865,7050,PLATTE VALLEY ELEMENTARY SCHOOL,SEDGWICK,CO,80749,,
2865,7322,REVERE JUNIOR-SENIOR HIGH SCHOOL,OVID,CO,80744,,
3000,8370,DILLON VALLEY ELEMENTARY SCHOOL,DILLON,CO,80435,,
3000,8372,BRECKENRIDGE ELEMENTARY SCHOOL,BRECKENRIDGE,CO,80424,,
3000,8374,FRISCO ELEMENTARY SCHOOL,FRISCO,CO,80443,,
3000,8375,SNOWY PEAKS HIGH SCHOOL,DILLON,CO,80435,,
3000,8376,SILVERTHORNE ELEMENTARY SCHOOL,SILVERTHORNE,CO,80498,,
3000,8377,SUMMIT MIDDLE SCHOOL,FRISCO,CO,80443,,
3000,8378,SUMMIT HIGH SCHOOL,FRISCO,CO,80443,,
3000,8385,SUMMIT COVE ELEMENTARY SCHOOL,DILLON,CO,80435,,
3000,8993,UPPER BLUE ELEMENTARY SCHOOL,BRECKENRIDGE,CO,80424,,
3010,2024,CRIPPLE CREEK-VICTOR JUNIOR-SENIOR HIGH SCHOOL,CRIPPLE CREEK,CO,80813,,
3010,9080,CRESSON ELEMENTARY SCHOOL,CRIPPLE CREEK,CO,80813,,
3020,8379,SUMMIT ELEMENTARY SCHOOL,DIVIDE,CO,80814,,
3020,9692,GATEWAY ELEMENTARY SCHOOL,WOODLAND PARK,CO,80866,,
3020,9694,WOODLAND PARK MIDDLE SCHOOL,WOODLAND PARK,CO,80866,,
3020,9696,WOODLAND PARK HIGH SCHOOL,WOODLAND PARK,CO,80866,,
3020,9698,COLUMBINE ELEMENTARY SCHOOL,WOODLAND PARK,CO,80866,,
3030,86,AKRON ELEMENTARY SCHOOL,AKRON,CO,80720,,
3030,90,AKRON HIGH SCHOOL,AKRON,CO,80720,,
3040,304,ARICKAREE ELEMENTARY SCHOOL,ANTON,CO,80801,,
3040,308,ARICKAREE UNDIVIDED HIGH SCHOOL,ANTON,CO,80801,,
3050,6582,OTIS ELEMENTARY SCHOOL,OTIS,CO,80743,,
3050,6586,OTIS JUNIOR-SENIOR HIGH SCHOOL,OTIS,CO,80743,,
3060,5238,LONE STAR MIDDLE SCHOOL,OTIS,CO,80743,,
3060,5254,LONE STAR ELEMENTARY SCHOOL,OTIS,CO,80743,,
3060,5258,LONE STAR UNDIVIDED HIGH SCHOOL,OTIS,CO,80743,,
3070,9700,WOODLIN ELEMENTARY SCHOOL,WOODROW,CO,80757,,
3070,9704,WOODLIN UNDIVIDED HIGH SCHOOL,WOODROW,CO,80757,,
3080,3398,GILCREST ELEMENTARY SCHOOL,GILCREST,CO,80623,,
3080,4852,PETE MIRICH ELEMENTARY SCHOOL,LA SALLE,CO,80645,,
3080,4854,NORTH VALLEY MIDDLE SCHOOL,LA SALLE,CO,80645,,
3080,7056,PLATTEVILLE ELEMENTARY SCHOOL,PLATTEVILLE,CO,80651,,
3080,7058,SOUTH VALLEY MIDDLE SCHOOL,PLATTEVILLE,CO,80651,,
3080,9032,VALLEY HIGH SCHOOL,GILCREST,CO,80623,,
3085,754,BENJAMIN EATON ELEMENTARY SCHOOL,EATON,CO,80615,,
3085,2448,EATON ELEMENTARY SCHOOL,EATON,CO,80615,,
3085,2452,EATON MIDDLE SCHOOL,EATON,CO,80615,,
3085,2456,EATON HIGH SCHOOL,EATON,CO,80615,,
3085,3286,GALETON ELEMENTARY SCHOOL,GALETON,CO,80622,,
3090,1299,CARDINAL COMMUNITY ACADEMY CHARTER SCHOOL,KEENESBURG,CO,80643,,
3090,1446,WELD CENTRAL SENIOR HIGH SCHOOL,KEENESBURG,CO,80643,,
3090,3090,LOCHBUIE ELEMENTARY SCHOOL,LOCHBUIE,CO,80603,,
3090,4148,HUDSON ELEMENTARY SCHOOL,HUDSON,CO,80642,,
3090,4526,HOFF ELEMENTARY SCHOOL,KEENESBURG,CO,80643,,
3090,9347,WELD CENTRAL JUNIOR HIGH SCHOOL,KEENESBURG,CO,80643,,
3100,55,GRANDVIEW ELEMENTARY SCHOOL,WINDSOR,CO,80550,,
3100,6750,MOUNTAIN VIEW ELEMENTARY SCHOOL,WINDSOR,CO,80550,,
3100,7755,SEVERANCE MIDDLE SCHOOL,WINDSOR,CO,80550,,
3100,7958,SKYVIEW ELEMENTARY SCHOOL,WINDSOR,CO,80550,,
3100,8459,RANGE VIEW ELEMENTARY,SEVERANCE,CO,80550,,
3100,8886,TOZER ELEMENTARY SCHOOL,WINDSOR,CO,80550,,
3100,9665,WINDSOR CHARTER ACADEMY,WINDSOR,CO,80550,,
3100,9670,WINDSOR MIDDLE SCHOOL,WINDSOR,CO,80550,,
3100,9672,WINDSOR HIGH SCHOOL,WINDSOR,CO,80550,,
3110,4785,KNOWLEDGE QUEST ACADEMY,MILLIKEN,CO,80543,,
3110,5078,LETFORD ELEMENTARY SCHOOL,JOHNSTOWN,CO,80534,,
3110,5896,MILLIKEN ELEMENTARY SCHOOL,MILLIKEN,CO,80543,,
3110,5902,MILLIKEN MIDDLE SCHOOL,MILLIKEN,CO,80543,,
3110,6963,PIONEER RIDGE ELEMENTARY SCHOOL,JOHNSTOWN,CO,80534,,
3110,7490,ROOSEVELT HIGH SCHOOL,JOHNSTOWN,CO,80534,,
3120,52,HEIMAN ELEMENTARY SCHOOL,EVANS,CO,80620,,
3120,53,WINOGRAD K-8 ELEMENTARY SCHOOL,GREELEY,CO,80634,,
3120,54,ROMERO ELEMENTARY SCHOOL,GREELEY,CO,80631,,
3120,988,BRENTWOOD MIDDLE SCHOOL,GREELEY,CO,80634,,
3120,1384,CENTENNIAL ELEMENTARY SCHOOL,EVANS,CO,80620,,
3120,1500,CHAPPELOW K-8 MAGNET SCHOOL,EVANS,CO,80620,,
3120,1799,CAMERON SCHOOL,GREELEY,CO,80631,,
3120,1875,FRONTIER CHARTER ACADEMY,GREELEY,CO,80634,,
3120,2222,DOS RIOS ELEMENTARY SCHOOL,EVANS,CO,80620,,
3120,2414,EAST MEMORIAL ELEMENTARY SCHOOL,GREELEY,CO,80631,,
3120,2825,ENG@GE ONLINE ACADEMY,GREELEY,CO,80634,,
3120,2850,UNIVERSITY SCHOOLS,GREELEY,CO,80634,,
3120,3162,FRANKLIN MIDDLE SCHOOL,GREELEY,CO,80634,,
3120,3610,GREELEY CENTRAL HIGH SCHOOL,GREELEY,CO,80631,,
3120,3614,GREELEY WEST HIGH SCHOOL,GREELEY,CO,80634,,
3120,3880,HEATH MIDDLE SCHOOL,GREELEY,CO,80631,,
3120,4356,JACKSON ELEMENTARY SCHOOL,GREELEY,CO,80631,,
3120,4425,JEFFERSON HIGH SCHOOL,GREELEY,CO,80631,,
3120,4438,JOHN EVANS MIDDLE SCHOOL,GREELEY,CO,80631,,
3120,5412,MADISON ELEMENTARY SCHOOL,GREELEY,CO,80634,,
3120,5620,MAPLEWOOD ELEMENTARY SCHOOL,GREELEY,CO,80631,,
3120,5660,MCAULIFFE ELEMENTARY SCHOOL,GREELEY,CO,80634,,
3120,5752,MEEKER ELEMENTARY SCHOOL,GREELEY,CO,80634,,
3120,5985,MONFORT ELEMENTARY SCHOOL,GREELEY,CO,80634,,
3120,6364,NORTHRIDGE HIGH SCHOOL,GREELEY,CO,80634,,
3120,6774,MARTINEZ ELEMENTARY SCHOOL,GREELEY,CO,80631,,
3120,7700,SCOTT ELEMENTARY SCHOOL,GREELEY,CO,80634,,
3120,7814,SHAWSHEEN ELEMENTARY SCHOOL,GREELEY,CO,80634,,
3120,8965,UNION COLONY PREPARATORY SCHOOL,GREELEY,CO,80634,,
3120,9611,WEST RIDGE ACADEMY,GREELEY,CO,80631,,
3130,4670,PLATTE VALLEY HIGH SCHOOL,KERSEY,CO,80644,,
3130,7052,PLATTE VALLEY ELEMENTARY SCHOOL,KERSEY,CO,80644,,
3130,7054,PLATTE VALLEY MIDDLE SCHOOL,KERSEY,CO,80644,,
3140,3066,FORT LUPTON MIDDLE SCHOOL,FORT LUPTON,CO,80621,,
3140,3070,FORT LUPTON HIGH SCHOOL,FORT LUPTON,CO,80621,,
3140,5050,LEO WILLIAM BUTLER ELEMENTARY SCHOOL,FORT LUPTON,CO,80621,,
3140,8930,TWOMBLY ELEMENTARY SCHOOL,FORT LUPTON,CO,80621,,
3145,3958,HIGHLAND ELEMENTARY SCHOOL,PIERCE,CO,80650,,
3145,3961,HIGHLAND MIDDLE SCHOOL,AULT,CO,80610,,
3145,3962,HIGHLAND HIGH SCHOOL,AULT,CO,80610,,
3146,1008,BRIGGSDALE ELEMENTARY SCHOOL,BRIGGSDALE,CO,80611,,
3146,1012,BRIGGSDALE UNDIVIDED HIGH SCHOOL,BRIGGSDALE,CO,80611,,
3147,7154,PRAIRIE ELEMENTARY SCHOOL,NEW RAYMER,CO,80742,,
3147,7156,PRAIRIE JUNIOR-SENIOR HIGH SCHOOL,NEW RAYMER,CO,80742,,
3148,3672,PAWNEE ELEMENTARY SCHOOL,GROVER,CO,80729,,
3148,6812,PAWNEE JUNIOR-SENIOR HIGH SCHOOL,GROVER,CO,80729,,
3200,5221,LITTLE INDIANS PRESCHOOL,YUMA,CO,80759,,
3200,9791,YUMA MIDDLE SCHOOL,YUMA,CO,80759,,
3200,9795,KENNETH P MORRIS ELEMENTARY SCHOOL,YUMA,CO,80759,,
3200,9799,YUMA HIGH SCHOOL,YUMA,CO,80759,,
3210,9725,WRAY ELEMENTARY SCHOOL,WRAY,CO,80758,,
3210,9729,BUCHANAN MIDDLE SCHOOL,WRAY,CO,80758,,
3210,9733,WRAY HIGH SCHOOL,WRAY,CO,80758,,
3220,4227,IDALIA ELEMENTARY SCHOOL,IDALIA,CO,80735,,
3220,4231,IDALIA JUNIOR-SENIOR HIGH SCHOOL,IDALIA,CO,80735,,
3230,5119,LIBERTY ELEMENTARY SCHOOL,JOES,CO,80822,,
3230,5123,LIBERTY JUNIOR-SENIOR HIGH SCHOOL,JOES,CO,80822,,
8001,35,FRONTIER CHARTER ACADEMY,CALHAN,CO,80808,,
8001,75,ANIMAS HIGH SCHOOL,DURANGO,CO,81320,,
8001,653,STONE CREEK SCHOOL,AVON,CO,81620,,
8001,654,THE PINNACLE CHARTER SCHOOL ELEMENTARY,FEDERAL HEIGHTS,CO,80206,,
8001,655,HIGH POINT ACADEMY,AURORA,CO,80019,,
8001,657,T.R. PAUL ACADEMY OF ARTS & KNOWLEDGE,FT COLLINS,CO,80525,,
8001,1279,CAPROCK ACADEMY,GRAND JUNCTION,CO,81505,,
8001,1376,SCHOLARS TO LEADERS ACADEMY,COLORADO SPRINGS,CO,80907,,
8001,1791,COLORADO SPRINGS CHARTER ACADEMY,COLORADO SPRINGS,CO,80909,,
8001,1795,COLORADO SPRINGS EARLY COLLEGES,COLORADO SPRINGS,CO,80907,,
8001,1877,COLORADO PROVOST ACADEMY,GREENWOOD VILLAGE,CO,80111,,
8001,1882,COMMUNITY LEADERSHIP ACADEMY,COMMERCE CITY,CO,80022,,
8001,1901,COLORADO CALVERT ACADEMY,DENVER,CO,80203,,
8001,2837,EARLY COLLEGE HIGH SCHOOL AT ARVADA,ARVADA,CO,80003,,
8001,3475,GOAL ACADEMY,WESTMINSTER,CO,80300,,
8001,5453,MOUNTAIN MIDDLE SCHOOL,DURANGO,CO,81301,,
8001,6913,THE PINNACLE CHARTER SCHOOL MIDDLE,FEDERAL HEIGHTS,CO,80206,,
8001,6914,THE PINNACLE CHARTER SCHOOL HIGH,FEDERAL HEIGHTS,CO,80206,,
8001,7278,RICARDO FLORES MAGON ACADEMY,WESTMINSTER,CO,80030,,
8001,7512,ROSS MONTESSORI SCHOOL,CARBONDALE,CO,81623,,
8001,8825,THOMAS MACLAREN STATE CHARTER SCHOOL,COLORADO SPRINGS,CO,80918,,
8001,8929,PIKES PEAK PREP,COLORADO SPRINGS,CO,80903,,
8001,9051,THE VANGUARD SCHOOL (MIDDLE),COLORADO SPRINGS,CO,80906,,
8001,9057,THE VANGUARD SCHOOL (HIGH),COLORADO SPRINGS,CO,80906,,
8001,9785,YOUTH & FAMILY ACADEMY CHARTER,PUEBLO,CO,81008,,
9030,6134,YAMPAH MOUNTAIN SCHOOL,GLENWOOD SPRINGS,CO,81601,,
9030,6136,PROJECT REBOUND,GLENWOOD SPRINGS,CO,81601,,
9030,9797,YAMPAH TEEN PARENT PROGRAM,GLENWOOD SPRINGS,CO,81601,,
9035,1607,CENTENNIAL BOCES HIGH SCHOOL,GREELEY,CO,80634,,
9050,8121,SOUTHWEST COLORADO E-SCHOOL,DURANGO,CO,81301,,
9130,2840,EXPEDITIONARY LEARNING SCHOOL,DENVER,CO,80222,,
